{"type": "FeatureCollection",
"crs": { "type": "name", "properties": { "name": "urn:ogc:def:crs:OGC:1.3:CRS84" } },
                                                                                
"features": [
{ "type": "Feature", "properties": { "ADDRESS": "150 William St", "CITY": "New York", "STATE": "NY", "ZIP": "10038", "DIR": null, "COMMUNITY": "Seaport & Civic Center", "ZONE": "A", "NUM_OF": "1", "addrtype": "premise", "addrlocat": "ROOFTOP" }, "geometry": { "type": "Point", "coordinates": [ -74.0057846, 40.7095328 ] } },
{ "type": "Feature", "properties": { "ADDRESS": "77 Fulton St", "CITY": "New York", "STATE": "NY", "ZIP": "10038", "DIR": null, "COMMUNITY": "Seaport & Civic Center", "ZONE": "A", "NUM_OF": "1", "addrtype": "premise", "addrlocat": "ROOFTOP" }, "geometry": { "type": "Point", "coordinates": [ -74.0046585, 40.7091327 ] } },
{ "type": "Feature", "properties": { "ADDRESS": "55 Fulton St", "CITY": "New York", "STATE": "NY", "ZIP": "10038", "DIR": null, "COMMUNITY": "Seaport & Civic Center", "ZONE": "A", "NUM_OF": "4", "addrtype": "premise", "addrlocat": "ROOFTOP" }, "geometry": { "type": "Point", "coordinates": [ -74.0046574, 40.708771 ] } },
{ "type": "Feature", "properties": { "ADDRESS": "49 Fulton St", "CITY": "New York", "STATE": "NY", "ZIP": "10038", "DIR": null, "COMMUNITY": "Seaport & Civic Center", "ZONE": "A", "NUM_OF": "6", "addrtype": "premise", "addrlocat": "ROOFTOP" }, "geometry": { "type": "Point", "coordinates": [ -74.0039452, 40.7081354 ] } },
{ "type": "Feature", "properties": { "ADDRESS": "Front St & Peck Slip", "CITY": "New York", "STATE": "NY", "ZIP": "10038", "DIR": "NE", "COMMUNITY": "Seaport & Civic Center", "ZONE": "A", "NUM_OF": "3", "addrtype": "intersection", "addrlocat": "APPROXIMATE" }, "geometry": { "type": "Point", "coordinates": [ -74.0014547, 40.7078635 ] } },
{ "type": "Feature", "properties": { "ADDRESS": "200 Water St", "CITY": "New York", "STATE": "NY", "ZIP": "10038", "DIR": "E", "COMMUNITY": "Seaport & Civic Center", "ZONE": "A", "NUM_OF": "1", "addrtype": "street_address", "addrlocat": "ROOFTOP" }, "geometry": { "type": "Point", "coordinates": [ -74.0045635, 40.7073373 ] } },
{ "type": "Feature", "properties": { "ADDRESS": "199 Water St", "CITY": "New York", "STATE": "NY", "ZIP": "10038", "DIR": "E", "COMMUNITY": "Seaport & Civic Center", "ZONE": "A", "NUM_OF": "5", "addrtype": "street_address", "addrlocat": "ROOFTOP" }, "geometry": { "type": "Point", "coordinates": [ -74.0043844, 40.7068739 ] } },
{ "type": "Feature", "properties": { "ADDRESS": "Front St & John St", "CITY": "New York", "STATE": "NY", "ZIP": "10038", "DIR": "SE", "COMMUNITY": "Seaport & Civic Center", "ZONE": "A", "NUM_OF": "2", "addrtype": "intersection", "addrlocat": "APPROXIMATE" }, "geometry": { "type": "Point", "coordinates": [ -74.0045771, 40.7064006 ] } },
{ "type": "Feature", "properties": { "ADDRESS": "189 Front St", "CITY": "New York", "STATE": "NY", "ZIP": "10038", "DIR": null, "COMMUNITY": "Seaport & Civic Center", "ZONE": "A", "NUM_OF": "2", "addrtype": "street_address", "addrlocat": "ROOFTOP" }, "geometry": { "type": "Point", "coordinates": [ -74.004102, 40.7066187 ] } },
{ "type": "Feature", "properties": { "ADDRESS": "South St & John St", "CITY": "New York", "STATE": "NY", "ZIP": "10038", "DIR": "SE", "COMMUNITY": "Seaport & Civic Center", "ZONE": "A", "NUM_OF": "4", "addrtype": "intersection", "addrlocat": "APPROXIMATE" }, "geometry": { "type": "Point", "coordinates": [ -74.0038882, 40.7058106 ] } },
{ "type": "Feature", "properties": { "ADDRESS": "89 South St", "CITY": "New York", "STATE": "NY", "ZIP": "10038", "DIR": null, "COMMUNITY": "Seaport & Civic Center", "ZONE": "A", "NUM_OF": "10", "addrtype": "street_address", "addrlocat": "ROOFTOP" }, "geometry": { "type": "Point", "coordinates": [ -74.0028979, 40.7066009 ] } },
{ "type": "Feature", "properties": { "ADDRESS": "26 Federal Plaza", "CITY": "New York", "STATE": "NY", "ZIP": "10278", "DIR": null, "COMMUNITY": "Seaport & Civic Center", "ZONE": "A", "NUM_OF": "9", "addrtype": "street_address", "addrlocat": "ROOFTOP" }, "geometry": { "type": "Point", "coordinates": [ -74.0043389, 40.715458 ] } },
{ "type": "Feature", "properties": { "ADDRESS": "365 South End Ave", "CITY": "New York", "STATE": "NY", "ZIP": "10280", "DIR": null, "COMMUNITY": "Battery Park City", "ZONE": "A", "NUM_OF": "4", "addrtype": "street_address", "addrlocat": "ROOFTOP" }, "geometry": { "type": "Point", "coordinates": [ -74.0175897, 40.7107406 ] } },
{ "type": "Feature", "properties": { "ADDRESS": "300 Rector Pl", "CITY": "New York", "STATE": "NY", "ZIP": "10280", "DIR": null, "COMMUNITY": "Battery Park City", "ZONE": "A", "NUM_OF": "6", "addrtype": "street_address", "addrlocat": "ROOFTOP" }, "geometry": { "type": "Point", "coordinates": [ -74.0173477, 40.7089922 ] } },
{ "type": "Feature", "properties": { "ADDRESS": "280 Rector Pl", "CITY": "New York", "STATE": "NY", "ZIP": "10280", "DIR": null, "COMMUNITY": "Battery Park City", "ZONE": "A", "NUM_OF": "6", "addrtype": "street_address", "addrlocat": "ROOFTOP" }, "geometry": { "type": "Point", "coordinates": [ -74.0166546, 40.7088321 ] } },
{ "type": "Feature", "properties": { "ADDRESS": "333 Rector Pl", "CITY": "New York", "STATE": "NY", "ZIP": "10280", "DIR": null, "COMMUNITY": "Battery Park City", "ZONE": "A", "NUM_OF": "4", "addrtype": "street_address", "addrlocat": "ROOFTOP" }, "geometry": { "type": "Point", "coordinates": [ -74.0173131, 40.7096944 ] } },
{ "type": "Feature", "properties": { "ADDRESS": "225 Rector Pl", "CITY": "New York", "STATE": "NY", "ZIP": "10280", "DIR": null, "COMMUNITY": "Battery Park City", "ZONE": "A", "NUM_OF": "4", "addrtype": "street_address", "addrlocat": "ROOFTOP" }, "geometry": { "type": "Point", "coordinates": [ -74.016035, 40.7093441 ] } },
{ "type": "Feature", "properties": { "ADDRESS": "380 Rector Pl", "CITY": "New York", "STATE": "NY", "ZIP": "10280", "DIR": null, "COMMUNITY": "Battery Park City", "ZONE": "A", "NUM_OF": "8", "addrtype": "street_address", "addrlocat": "ROOFTOP" }, "geometry": { "type": "Point", "coordinates": [ -74.0180757, 40.70924 ] } },
{ "type": "Feature", "properties": { "ADDRESS": "200 Rector Pl", "CITY": "New York", "STATE": "NY", "ZIP": "10280", "DIR": null, "COMMUNITY": "Battery Park City", "ZONE": "A", "NUM_OF": "6", "addrtype": "premise", "addrlocat": "ROOFTOP" }, "geometry": { "type": "Point", "coordinates": [ -74.0166092, 40.7085414 ] } },
{ "type": "Feature", "properties": { "ADDRESS": "102 North End Ave", "CITY": "New York", "STATE": "NY", "ZIP": "10282", "DIR": null, "COMMUNITY": "Battery Park City", "ZONE": "A", "NUM_OF": "15", "addrtype": "street_address", "addrlocat": "ROOFTOP" }, "geometry": { "type": "Point", "coordinates": [ -74.0152218, 40.7150015 ] } },
{ "type": "Feature", "properties": { "ADDRESS": "345 Chambers St", "CITY": "New York", "STATE": "NY", "ZIP": "10282", "DIR": null, "COMMUNITY": "Battery Park City", "ZONE": "A", "NUM_OF": "4", "addrtype": "premise", "addrlocat": "ROOFTOP" }, "geometry": { "type": "Point", "coordinates": [ -74.0139052, 40.7179464 ] } },
{ "type": "Feature", "properties": { "ADDRESS": "99 Battery Pl", "CITY": "New York", "STATE": "NY", "ZIP": "10280", "DIR": null, "COMMUNITY": "Battery Park City", "ZONE": "A", "NUM_OF": "15", "addrtype": "premise", "addrlocat": "ROOFTOP" }, "geometry": { "type": "Point", "coordinates": [ -74.0166364, 40.7076576 ] } },
{ "type": "Feature", "properties": { "ADDRESS": "Battery Pl & 3rd Pl", "CITY": "New York", "STATE": "NY", "ZIP": "10280", "DIR": "SE", "COMMUNITY": "Battery Park City", "ZONE": "A", "NUM_OF": "2", "addrtype": "intersection", "addrlocat": "APPROXIMATE" }, "geometry": { "type": "Point", "coordinates": [ -74.0171311, 40.7074617 ] } },
{ "type": "Feature", "properties": { "ADDRESS": "70 Battery Pl", "CITY": "New York", "STATE": "NY", "ZIP": "10280", "DIR": null, "COMMUNITY": "Battery Park City", "ZONE": "A", "NUM_OF": "14", "addrtype": "premise", "addrlocat": "ROOFTOP" }, "geometry": { "type": "Point", "coordinates": [ -74.0176772, 40.7072932 ] } },
{ "type": "Feature", "properties": { "ADDRESS": "Battery Pl & 1St Pl", "CITY": "New York", "STATE": "NY", "ZIP": "10280", "DIR": "SE", "COMMUNITY": "Battery Park City", "ZONE": "A", "NUM_OF": "1", "addrtype": "intersection", "addrlocat": "APPROXIMATE" }, "geometry": { "type": "Point", "coordinates": [ -74.0179524, 40.7061316 ] } },
{ "type": "Feature", "properties": { "ADDRESS": "55 Church St", "CITY": "New York", "STATE": "NY", "ZIP": "10007", "DIR": null, "COMMUNITY": "Financial District", "ZONE": "A", "NUM_OF": "5", "addrtype": "street_address", "addrlocat": "ROOFTOP" }, "geometry": { "type": "Point", "coordinates": [ -74.0103057, 40.7111618 ] } },
{ "type": "Feature", "properties": { "ADDRESS": "30 W Broadway", "CITY": "New York", "STATE": "NY", "ZIP": "10007", "DIR": null, "COMMUNITY": "Financial District", "ZONE": "A", "NUM_OF": "2", "addrtype": "street_address", "addrlocat": "ROOFTOP" }, "geometry": { "type": "Point", "coordinates": [ -74.011129, 40.713747 ] } },
{ "type": "Feature", "properties": { "ADDRESS": "53 W Broadway", "CITY": "New York", "STATE": "NY", "ZIP": "10007", "DIR": null, "COMMUNITY": "Financial District", "ZONE": "A", "NUM_OF": "5", "addrtype": "street_address", "addrlocat": "RANGE_INTERPOLATED" }, "geometry": { "type": "Point", "coordinates": [ -74.0102785, 40.7141915 ] } },
{ "type": "Feature", "properties": { "ADDRESS": "101 Barclay St", "CITY": "New York", "STATE": "NY", "ZIP": "10007", "DIR": "S", "COMMUNITY": "Financial District", "ZONE": "A", "NUM_OF": "1", "addrtype": "premise", "addrlocat": "ROOFTOP" }, "geometry": { "type": "Point", "coordinates": [ -74.0121507, 40.7144487 ] } },
{ "type": "Feature", "properties": { "ADDRESS": "265 Greenwich St", "CITY": "New York", "STATE": "NY", "ZIP": "10007", "DIR": null, "COMMUNITY": "Financial District", "ZONE": "A", "NUM_OF": "2", "addrtype": "street_address", "addrlocat": "RANGE_INTERPOLATED" }, "geometry": { "type": "Point", "coordinates": [ -74.0122725, 40.7113734 ] } },
{ "type": "Feature", "properties": { "ADDRESS": "70 Murray St", "CITY": "New York", "STATE": "NY", "ZIP": "10007", "DIR": "W", "COMMUNITY": "Financial District", "ZONE": "A", "NUM_OF": "1", "addrtype": "street_address", "addrlocat": "ROOFTOP" }, "geometry": { "type": "Point", "coordinates": [ -74.010839, 40.714323 ] } },
{ "type": "Feature", "properties": { "ADDRESS": "14 Vesey St", "CITY": "New York", "STATE": "NY", "ZIP": "10007", "DIR": null, "COMMUNITY": "Financial District", "ZONE": "A", "NUM_OF": "1", "addrtype": "premise", "addrlocat": "ROOFTOP" }, "geometry": { "type": "Point", "coordinates": [ -74.009213, 40.7119193 ] } },
{ "type": "Feature", "properties": { "ADDRESS": "Platt St & Gold St", "CITY": "New York", "STATE": "NY", "ZIP": "10038", "DIR": "SE", "COMMUNITY": "Financial District", "ZONE": "B", "NUM_OF": "3", "addrtype": "intersection", "addrlocat": "APPROXIMATE" }, "geometry": { "type": "Point", "coordinates": [ -74.0068266, 40.7078861 ] } },
{ "type": "Feature", "properties": { "ADDRESS": "2 Gold St", "CITY": "New York", "STATE": "NY", "ZIP": "10038", "DIR": null, "COMMUNITY": "Financial District", "ZONE": "B", "NUM_OF": "5", "addrtype": "premise", "addrlocat": "ROOFTOP" }, "geometry": { "type": "Point", "coordinates": [ -74.0069621, 40.7073585 ] } },
{ "type": "Feature", "properties": { "ADDRESS": "17 Fletcher St", "CITY": "New York", "STATE": "NY", "ZIP": "10038", "DIR": null, "COMMUNITY": "Financial District", "ZONE": "B", "NUM_OF": "1", "addrtype": "street_address", "addrlocat": "RANGE_INTERPOLATED" }, "geometry": { "type": "Point", "coordinates": [ -74.0057577, 40.7063882 ] } },
{ "type": "Feature", "properties": { "ADDRESS": "26 Cedar St", "CITY": "New York", "STATE": "NY", "ZIP": "10038", "DIR": null, "COMMUNITY": "Financial District", "ZONE": "B", "NUM_OF": "3", "addrtype": "street_address", "addrlocat": "ROOFTOP" }, "geometry": { "type": "Point", "coordinates": [ -74.0083887, 40.7070189 ] } },
{ "type": "Feature", "properties": { "ADDRESS": "Pine St & Water St", "CITY": "New York", "STATE": "NY", "ZIP": "10005", "DIR": "N", "COMMUNITY": "Financial District", "ZONE": "B", "NUM_OF": "2", "addrtype": "intersection", "addrlocat": "APPROXIMATE" }, "geometry": { "type": "Point", "coordinates": [ -74.006764, 40.7056309 ] } },
{ "type": "Feature", "properties": { "ADDRESS": "38 Old Slip", "CITY": "New York", "STATE": "NY", "ZIP": "10005", "DIR": "SE", "COMMUNITY": "Financial District", "ZONE": "B", "NUM_OF": "16", "addrtype": "street_address", "addrlocat": "RANGE_INTERPOLATED" }, "geometry": { "type": "Point", "coordinates": [ -74.007912, 40.7034648 ] } },
{ "type": "Feature", "properties": { "ADDRESS": "100 Wall St", "CITY": "New York", "STATE": "NY", "ZIP": "10005", "DIR": null, "COMMUNITY": "Financial District", "ZONE": "B", "NUM_OF": "4", "addrtype": "premise", "addrlocat": "ROOFTOP" }, "geometry": { "type": "Point", "coordinates": [ -74.0068009, 40.7052203 ] } },
{ "type": "Feature", "properties": { "ADDRESS": "111 Front St", "CITY": "New York", "STATE": "NY", "ZIP": "10005", "DIR": null, "COMMUNITY": "Financial District", "ZONE": "B", "NUM_OF": "5", "addrtype": "street_address", "addrlocat": "ROOFTOP" }, "geometry": { "type": "Point", "coordinates": [ -74.0071531, 40.7045175 ] } },
{ "type": "Feature", "properties": { "ADDRESS": "110 Wall St", "CITY": "New York", "STATE": "NY", "ZIP": "10005", "DIR": null, "COMMUNITY": "Financial District", "ZONE": "B", "NUM_OF": "20", "addrtype": "premise", "addrlocat": "ROOFTOP" }, "geometry": { "type": "Point", "coordinates": [ -74.0064032, 40.7049123 ] } },
{ "type": "Feature", "properties": { "ADDRESS": "FDR & Wall St", "CITY": "New York", "STATE": "NY", "ZIP": "10005", "DIR": "E", "COMMUNITY": "Financial District", "ZONE": "B", "NUM_OF": "8", "addrtype": "route", "addrlocat": "GEOMETRIC_CENTER" }, "geometry": { "type": "Point", "coordinates": [ -74.008801, 40.7060006 ] } },
{ "type": "Feature", "properties": { "ADDRESS": "9 Gold St", "CITY": "New York", "STATE": "NY", "ZIP": "10038", "DIR": null, "COMMUNITY": "Financial District", "ZONE": "B", "NUM_OF": "5", "addrtype": "street_address", "addrlocat": "ROOFTOP" }, "geometry": { "type": "Point", "coordinates": [ -74.0071603, 40.7077005 ] } },
{ "type": "Feature", "properties": { "ADDRESS": "Water St & Fletcher St", "CITY": "New York", "STATE": "NY", "ZIP": "10038", "DIR": "NW", "COMMUNITY": "Financial District", "ZONE": "B", "NUM_OF": "1", "addrtype": "intersection", "addrlocat": "APPROXIMATE" }, "geometry": { "type": "Point", "coordinates": [ -74.0057019, 40.7063649 ] } },
{ "type": "Feature", "properties": { "ADDRESS": "85 Pearl St", "CITY": "New York", "STATE": "NY", "ZIP": "10004", "DIR": null, "COMMUNITY": "Financial District", "ZONE": "C", "NUM_OF": "10", "addrtype": "street_address", "addrlocat": "ROOFTOP" }, "geometry": { "type": "Point", "coordinates": [ -74.0101344, 40.7041613 ] } },
{ "type": "Feature", "properties": { "ADDRESS": "77 Pearl St", "CITY": "New York", "STATE": "NY", "ZIP": "10004", "DIR": null, "COMMUNITY": "Financial District", "ZONE": "C", "NUM_OF": "4", "addrtype": "premise", "addrlocat": "ROOFTOP" }, "geometry": { "type": "Point", "coordinates": [ -74.0104852, 40.7040451 ] } },
{ "type": "Feature", "properties": { "ADDRESS": "2 Coenties Slip", "CITY": "New York", "STATE": "NY", "ZIP": "10004", "DIR": null, "COMMUNITY": "Financial District", "ZONE": "C", "NUM_OF": "2", "addrtype": "premise", "addrlocat": "ROOFTOP" }, "geometry": { "type": "Point", "coordinates": [ -74.0103989, 40.7036564 ] } },
{ "type": "Feature", "properties": { "ADDRESS": "17 State St", "CITY": "New York", "STATE": "NY", "ZIP": "10004", "DIR": null, "COMMUNITY": "Financial District", "ZONE": "C", "NUM_OF": "10", "addrtype": "premise", "addrlocat": "ROOFTOP" }, "geometry": { "type": "Point", "coordinates": [ -74.0139817, 40.7028826 ] } },
{ "type": "Feature", "properties": { "ADDRESS": "Water St & Whitehall St", "CITY": "New York", "STATE": "NY", "ZIP": "10004", "DIR": "NE", "COMMUNITY": "Financial District", "ZONE": "C", "NUM_OF": "11", "addrtype": "intersection", "addrlocat": "APPROXIMATE" }, "geometry": { "type": "Point", "coordinates": [ -74.0128434, 40.7024346 ] } },
{ "type": "Feature", "properties": { "ADDRESS": "25 Broad St", "CITY": "New York", "STATE": "NY", "ZIP": "10004", "DIR": null, "COMMUNITY": "Financial District", "ZONE": "C", "NUM_OF": "4", "addrtype": "street_address", "addrlocat": "ROOFTOP" }, "geometry": { "type": "Point", "coordinates": [ -74.0111372, 40.7060887 ] } },
{ "type": "Feature", "properties": { "ADDRESS": "Broad St & Exchange Place", "CITY": "New York", "STATE": "NY", "ZIP": "10004", "DIR": "SW", "COMMUNITY": "Financial District", "ZONE": "C", "NUM_OF": "3", "addrtype": "intersection", "addrlocat": "APPROXIMATE" }, "geometry": { "type": "Point", "coordinates": [ -74.0112033, 40.7062727 ] } },
{ "type": "Feature", "properties": { "ADDRESS": "15 Broad St", "CITY": "New York", "STATE": "NY", "ZIP": "10004", "DIR": null, "COMMUNITY": "Financial District", "ZONE": "C", "NUM_OF": "8", "addrtype": "street_address", "addrlocat": "ROOFTOP" }, "geometry": { "type": "Point", "coordinates": [ -74.0106248, 40.7064181 ] } },
{ "type": "Feature", "properties": { "ADDRESS": "96 Trinity Place", "CITY": "New York", "STATE": "NY", "ZIP": "10006", "DIR": null, "COMMUNITY": "Financial District", "ZONE": "D", "NUM_OF": "1", "addrtype": "street_address", "addrlocat": "ROOFTOP" }, "geometry": { "type": "Point", "coordinates": [ -74.0120905, 40.7092118 ] } },
{ "type": "Feature", "properties": { "ADDRESS": "112 Greenwich St", "CITY": "New York", "STATE": "NY", "ZIP": "10013", "DIR": null, "COMMUNITY": "Financial District", "ZONE": "D", "NUM_OF": "1", "addrtype": "street_address", "addrlocat": "ROOFTOP" }, "geometry": { "type": "Point", "coordinates": [ -74.0089357, 40.7275631 ] } },
{ "type": "Feature", "properties": { "ADDRESS": "96 Greenwich St", "CITY": "New York", "STATE": "NY", "ZIP": "10013", "DIR": null, "COMMUNITY": "Financial District", "ZONE": "D", "NUM_OF": "2", "addrtype": "street_address", "addrlocat": "ROOFTOP" }, "geometry": { "type": "Point", "coordinates": [ -74.013783, 40.708221 ] } },
{ "type": "Feature", "properties": { "ADDRESS": "76 Greenwich St", "CITY": "New York", "STATE": "NY", "ZIP": "10013", "DIR": null, "COMMUNITY": "Financial District", "ZONE": "D", "NUM_OF": "2", "addrtype": "street_address", "addrlocat": "ROOFTOP" }, "geometry": { "type": "Point", "coordinates": [ -74.0091232, 40.7264106 ] } },
{ "type": "Feature", "properties": { "ADDRESS": "24 State St", "CITY": "New York", "STATE": "NY", "ZIP": "10004", "DIR": null, "COMMUNITY": "Financial District", "ZONE": "D", "NUM_OF": "4", "addrtype": "street_address", "addrlocat": "ROOFTOP" }, "geometry": { "type": "Point", "coordinates": [ -74.0139189, 40.7033811 ] } },
{ "type": "Feature", "properties": { "ADDRESS": "17 State St", "CITY": "New York", "STATE": "NY", "ZIP": "10004", "DIR": null, "COMMUNITY": "Financial District", "ZONE": "D", "NUM_OF": "4", "addrtype": "premise", "addrlocat": "ROOFTOP" }, "geometry": { "type": "Point", "coordinates": [ -74.0139817, 40.7028826 ] } },
{ "type": "Feature", "properties": { "ADDRESS": "87 Battery Pl", "CITY": "New York", "STATE": "NY", "ZIP": "10280", "DIR": null, "COMMUNITY": "Financial District", "ZONE": "D", "NUM_OF": "4", "addrtype": "street_address", "addrlocat": "RANGE_INTERPOLATED" }, "geometry": { "type": "Point", "coordinates": [ -74.0169807, 40.7076365 ] } },
{ "type": "Feature", "properties": { "ADDRESS": "31 Varick St", "CITY": "New York", "STATE": "NY", "ZIP": "10013", "DIR": null, "COMMUNITY": "Tribeca", "ZONE": "A", "NUM_OF": "6", "addrtype": "street_address", "addrlocat": "RANGE_INTERPOLATED" }, "geometry": { "type": "Point", "coordinates": [ -74.0066485, 40.7207313 ] } },
{ "type": "Feature", "properties": { "ADDRESS": "64 Varick St", "CITY": "New York", "STATE": "NY", "ZIP": "10013", "DIR": null, "COMMUNITY": "Tribeca", "ZONE": "A", "NUM_OF": "7", "addrtype": "street_address", "addrlocat": "RANGE_INTERPOLATED" }, "geometry": { "type": "Point", "coordinates": [ -74.0064078, 40.7217989 ] } },
{ "type": "Feature", "properties": { "ADDRESS": "57 Beach St", "CITY": "New York", "STATE": "NY", "ZIP": "10013", "DIR": null, "COMMUNITY": "Tribeca", "ZONE": "A", "NUM_OF": "1", "addrtype": "street_address", "addrlocat": "ROOFTOP" }, "geometry": { "type": "Point", "coordinates": [ -74.0096302, 40.7208395 ] } },
{ "type": "Feature", "properties": { "ADDRESS": "185 Leonard St", "CITY": "New York", "STATE": "NY", "ZIP": "10013", "DIR": null, "COMMUNITY": "Tribeca", "ZONE": "B", "NUM_OF": "3", "addrtype": "street_address", "addrlocat": "RANGE_INTERPOLATED" }, "geometry": { "type": "Point", "coordinates": [ -74.0018683, 40.7158493 ] } },
{ "type": "Feature", "properties": { "ADDRESS": "173 Leonard St", "CITY": "New York", "STATE": "NY", "ZIP": "10013", "DIR": null, "COMMUNITY": "Tribeca", "ZONE": "B", "NUM_OF": "2", "addrtype": "street_address", "addrlocat": "RANGE_INTERPOLATED" }, "geometry": { "type": "Point", "coordinates": [ -74.0019921, 40.7159081 ] } },
{ "type": "Feature", "properties": { "ADDRESS": "151 West St", "CITY": "New York", "STATE": "NY", "ZIP": "10013", "DIR": null, "COMMUNITY": "Tribeca", "ZONE": "B", "NUM_OF": "2", "addrtype": "street_address", "addrlocat": "RANGE_INTERPOLATED" }, "geometry": { "type": "Point", "coordinates": [ -74.0105274, 40.7293086 ] } },
{ "type": "Feature", "properties": { "ADDRESS": "141 Thomas St", "CITY": "New York", "STATE": "NY", "ZIP": "10013", "DIR": null, "COMMUNITY": "Tribeca", "ZONE": "B", "NUM_OF": "1", "addrtype": "street_address", "addrlocat": "RANGE_INTERPOLATED" }, "geometry": { "type": "Point", "coordinates": [ -74.0089559, 40.7175927 ] } },
{ "type": "Feature", "properties": { "ADDRESS": "235 White St", "CITY": "New York", "STATE": "NY", "ZIP": "10013", "DIR": null, "COMMUNITY": "Tribeca", "ZONE": "B", "NUM_OF": "2", "addrtype": "street_address", "addrlocat": "RANGE_INTERPOLATED" }, "geometry": { "type": "Point", "coordinates": [ -73.9999981, 40.7165542 ] } },
{ "type": "Feature", "properties": { "ADDRESS": "Church St & Worth St", "CITY": "New York", "STATE": "NY", "ZIP": "10013", "DIR": null, "COMMUNITY": "Tribeca", "ZONE": "B", "NUM_OF": "3", "addrtype": "intersection", "addrlocat": "APPROXIMATE" }, "geometry": { "type": "Point", "coordinates": [ -74.006272, 40.7170856 ] } },
{ "type": "Feature", "properties": { "ADDRESS": "160 West Broadway", "CITY": "New York", "STATE": "NY", "ZIP": "10013", "DIR": null, "COMMUNITY": "Tribeca", "ZONE": "B", "NUM_OF": "8", "addrtype": "street_address", "addrlocat": "RANGE_INTERPOLATED" }, "geometry": { "type": "Point", "coordinates": [ -74.0077278, 40.7174593 ] } },
{ "type": "Feature", "properties": { "ADDRESS": "140 West Broadway", "CITY": "New York", "STATE": "NY", "ZIP": "10013", "DIR": null, "COMMUNITY": "Tribeca", "ZONE": "B", "NUM_OF": "1", "addrtype": "street_address", "addrlocat": "ROOFTOP" }, "geometry": { "type": "Point", "coordinates": [ -74.0083081, 40.7170271 ] } },
{ "type": "Feature", "properties": { "ADDRESS": "120 West Broadway", "CITY": "New York", "STATE": "NY", "ZIP": "10013", "DIR": null, "COMMUNITY": "Tribeca", "ZONE": "B", "NUM_OF": "1", "addrtype": "premise", "addrlocat": "ROOFTOP" }, "geometry": { "type": "Point", "coordinates": [ -74.0087158, 40.7165422 ] } },
{ "type": "Feature", "properties": { "ADDRESS": "100 Wall St", "CITY": "New York", "STATE": "NY", "ZIP": "10005", "DIR": null, "COMMUNITY": "Tribeca", "ZONE": "C", "NUM_OF": "4", "addrtype": "premise", "addrlocat": "ROOFTOP" }, "geometry": { "type": "Point", "coordinates": [ -74.0068009, 40.7052203 ] } },
{ "type": "Feature", "properties": { "ADDRESS": "32 Old Slip", "CITY": "New York", "STATE": "NY", "ZIP": "10005", "DIR": null, "COMMUNITY": "Tribeca", "ZONE": "C", "NUM_OF": "16", "addrtype": "street_address", "addrlocat": "ROOFTOP" }, "geometry": { "type": "Point", "coordinates": [ -74.0077157, 40.7037373 ] } },
{ "type": "Feature", "properties": { "ADDRESS": "Maiden St & Water St", "CITY": "New York", "STATE": "NY", "ZIP": "10038", "DIR": null, "COMMUNITY": "Tribeca", "ZONE": "C", "NUM_OF": "3", "addrtype": "intersection", "addrlocat": "APPROXIMATE" }, "geometry": { "type": "Point", "coordinates": [ -74.0060222, 40.7061348 ] } }
]
}
