{
"type": "FeatureCollection",
"crs": { "type": "name", "properties": { "name": "urn:ogc:def:crs:OGC:1.3:CRS84" } },
                                                                                
"features": [
{ "type": "Feature", "properties": { "ADDRESS": "15 Park Row", "CITY": "New York", "STATE": "NY", "ZIP": "10038", "DIR": null, "COMMUNITY": "Seaport & Civic Center", "ZONE": "A", "NUM_OF": "2", "addrtype": "street_address", "addrlocat": "ROOFTOP" }, "geometry": { "type": "Point", "coordinates": [ -74.0078405, 40.7111576 ] } },
{ "type": "Feature", "properties": { "ADDRESS": "52 Beekman St", "CITY": "New York", "STATE": "NY", "ZIP": "10038", "DIR": null, "COMMUNITY": "Seaport & Civic Center", "ZONE": "A", "NUM_OF": "2", "addrtype": "street_address", "addrlocat": "ROOFTOP" }, "geometry": { "type": "Point", "coordinates": [ -74.005729, 40.710991 ] } },
{ "type": "Feature", "properties": { "ADDRESS": "8 Spruce St", "CITY": "New York", "STATE": "NY", "ZIP": "10038", "DIR": null, "COMMUNITY": "Seaport & Civic Center", "ZONE": "A", "NUM_OF": "5", "addrtype": "street_address", "addrlocat": "ROOFTOP" }, "geometry": { "type": "Point", "coordinates": [ -74.0056101, 40.7108841 ] } },
{ "type": "Feature", "properties": { "ADDRESS": "38 Park Row", "CITY": "New York", "STATE": "NY", "ZIP": "10038", "DIR": null, "COMMUNITY": "Seaport & Civic Center", "ZONE": "A", "NUM_OF": "1", "addrtype": "street_address", "addrlocat": "ROOFTOP" }, "geometry": { "type": "Point", "coordinates": [ -74.0066803, 40.7115866 ] } },
{ "type": "Feature", "properties": { "ADDRESS": "96 Fulton St", "CITY": "New York", "STATE": "NY", "ZIP": "10038", "DIR": null, "COMMUNITY": "Seaport & Civic Center", "ZONE": "A", "NUM_OF": "1", "addrtype": "street_address", "addrlocat": "ROOFTOP" }, "geometry": { "type": "Point", "coordinates": [ -74.0062205, 40.709348 ] } },
{ "type": "Feature", "properties": { "ADDRESS": "139 Centre St", "CITY": "New York", "STATE": "NY", "ZIP": "10013", "DIR": null, "COMMUNITY": "Seaport & Civic Center", "ZONE": "A", "NUM_OF": "1", "addrtype": "premise", "addrlocat": "ROOFTOP" }, "geometry": { "type": "Point", "coordinates": [ -74.0006959, 40.7174831 ] } },
{ "type": "Feature", "properties": { "ADDRESS": "111 Worth St", "CITY": "New York", "STATE": "NY", "ZIP": "10013", "DIR": null, "COMMUNITY": "Seaport & Civic Center", "ZONE": "A", "NUM_OF": "2", "addrtype": "street_address", "addrlocat": "ROOFTOP" }, "geometry": { "type": "Point", "coordinates": [ -74.0036493, 40.7161318 ] } },
{ "type": "Feature", "properties": { "ADDRESS": "141 Worth St", "CITY": "New York", "STATE": "NY", "ZIP": "10013", "DIR": null, "COMMUNITY": "Seaport & Civic Center", "ZONE": "A", "NUM_OF": "2", "addrtype": "street_address", "addrlocat": "ROOFTOP" }, "geometry": { "type": "Point", "coordinates": [ -74.0017836, 40.7151736 ] } },
{ "type": "Feature", "properties": { "ADDRESS": "200 Liberty St", "CITY": "New York", "STATE": "NY", "ZIP": "10281", "DIR": null, "COMMUNITY": "Battery Park City", "ZONE": "A", "NUM_OF": "4", "addrtype": "street_address", "addrlocat": "ROOFTOP" }, "geometry": { "type": "Point", "coordinates": [ -74.015583, 40.7105803 ] } },
{ "type": "Feature", "properties": { "ADDRESS": "365 South End Ave", "CITY": "New York", "STATE": "NY", "ZIP": "10280", "DIR": null, "COMMUNITY": "Battery Park City", "ZONE": "A", "NUM_OF": "1", "addrtype": "street_address", "addrlocat": "ROOFTOP" }, "geometry": { "type": "Point", "coordinates": [ -74.0175897, 40.7107406 ] } },
{ "type": "Feature", "properties": { "ADDRESS": "250 South End Ave", "CITY": "New York", "STATE": "NY", "ZIP": "10280", "DIR": null, "COMMUNITY": "Battery Park City", "ZONE": "A", "NUM_OF": "1", "addrtype": "street_address", "addrlocat": "ROOFTOP" }, "geometry": { "type": "Point", "coordinates": [ -74.016117, 40.7097763 ] } },
{ "type": "Feature", "properties": { "ADDRESS": "300 Rector Pl", "CITY": "New York", "STATE": "NY", "ZIP": "10280", "DIR": null, "COMMUNITY": "Battery Park City", "ZONE": "A", "NUM_OF": "4", "addrtype": "street_address", "addrlocat": "ROOFTOP" }, "geometry": { "type": "Point", "coordinates": [ -74.0173477, 40.7089922 ] } },
{ "type": "Feature", "properties": { "ADDRESS": "280 Rector Pl", "CITY": "New York", "STATE": "NY", "ZIP": "10280", "DIR": null, "COMMUNITY": "Battery Park City", "ZONE": "A", "NUM_OF": "4", "addrtype": "street_address", "addrlocat": "ROOFTOP" }, "geometry": { "type": "Point", "coordinates": [ -74.0166546, 40.7088321 ] } },
{ "type": "Feature", "properties": { "ADDRESS": "333 Rector Pl", "CITY": "New York", "STATE": "NY", "ZIP": "10280", "DIR": null, "COMMUNITY": "Battery Park City", "ZONE": "A", "NUM_OF": "2", "addrtype": "street_address", "addrlocat": "ROOFTOP" }, "geometry": { "type": "Point", "coordinates": [ -74.0173131, 40.7096944 ] } },
{ "type": "Feature", "properties": { "ADDRESS": "225 Rector Pl", "CITY": "New York", "STATE": "NY", "ZIP": "10280", "DIR": null, "COMMUNITY": "Battery Park City", "ZONE": "A", "NUM_OF": "2", "addrtype": "street_address", "addrlocat": "ROOFTOP" }, "geometry": { "type": "Point", "coordinates": [ -74.016035, 40.7093441 ] } },
{ "type": "Feature", "properties": { "ADDRESS": "380 Rector Pl", "CITY": "New York", "STATE": "NY", "ZIP": "10280", "DIR": null, "COMMUNITY": "Battery Park City", "ZONE": "A", "NUM_OF": "4", "addrtype": "street_address", "addrlocat": "ROOFTOP" }, "geometry": { "type": "Point", "coordinates": [ -74.0180757, 40.70924 ] } },
{ "type": "Feature", "properties": { "ADDRESS": "200 Rector Pl", "CITY": "New York", "STATE": "NY", "ZIP": "10280", "DIR": null, "COMMUNITY": "Battery Park City", "ZONE": "A", "NUM_OF": "2", "addrtype": "premise", "addrlocat": "ROOFTOP" }, "geometry": { "type": "Point", "coordinates": [ -74.0166092, 40.7085414 ] } },
{ "type": "Feature", "properties": { "ADDRESS": "450 North End Ave", "CITY": "New York", "STATE": "NY", "ZIP": "10282", "DIR": null, "COMMUNITY": "Battery Park City", "ZONE": "A", "NUM_OF": "4", "addrtype": "street_address", "addrlocat": "ROOFTOP" }, "geometry": { "type": "Point", "coordinates": [ -74.0138033, 40.7171027 ] } },
{ "type": "Feature", "properties": { "ADDRESS": "Chambers St & River Terrace", "CITY": "New York", "STATE": "NY", "ZIP": "10282", "DIR": "SW", "COMMUNITY": "Battery Park City", "ZONE": "A", "NUM_OF": "5", "addrtype": "intersection", "addrlocat": "APPROXIMATE" }, "geometry": { "type": "Point", "coordinates": [ -74.0150114, 40.7181721 ] } },
{ "type": "Feature", "properties": { "ADDRESS": "22 River Terrace", "CITY": "New York", "STATE": "NY", "ZIP": "10282", "DIR": null, "COMMUNITY": "Battery Park City", "ZONE": "A", "NUM_OF": "2", "addrtype": "premise", "addrlocat": "ROOFTOP" }, "geometry": { "type": "Point", "coordinates": [ -74.0158186, 40.7172737 ] } },
{ "type": "Feature", "properties": { "ADDRESS": "20 River Terrace", "CITY": "New York", "STATE": "NY", "ZIP": "10282", "DIR": null, "COMMUNITY": "Battery Park City", "ZONE": "A", "NUM_OF": "3", "addrtype": "premise", "addrlocat": "ROOFTOP" }, "geometry": { "type": "Point", "coordinates": [ -74.0161324, 40.7165818 ] } },
{ "type": "Feature", "properties": { "ADDRESS": "1 River Terrace", "CITY": "New York", "STATE": "NY", "ZIP": "10282", "DIR": null, "COMMUNITY": "Battery Park City", "ZONE": "A", "NUM_OF": "3", "addrtype": "street_address", "addrlocat": "ROOFTOP" }, "geometry": { "type": "Point", "coordinates": [ -74.016893, 40.7145304 ] } },
{ "type": "Feature", "properties": { "ADDRESS": "102 North End Ave", "CITY": "New York", "STATE": "NY", "ZIP": "10282", "DIR": null, "COMMUNITY": "Battery Park City", "ZONE": "A", "NUM_OF": "20", "addrtype": "street_address", "addrlocat": "ROOFTOP" }, "geometry": { "type": "Point", "coordinates": [ -74.0152218, 40.7150015 ] } },
{ "type": "Feature", "properties": { "ADDRESS": "200 West St", "CITY": "New York", "STATE": "NY", "ZIP": "10013", "DIR": null, "COMMUNITY": "Battery Park City", "ZONE": "A", "NUM_OF": "12", "addrtype": "street_address", "addrlocat": "ROOFTOP" }, "geometry": { "type": "Point", "coordinates": [ -74.0142802, 40.7148673 ] } },
{ "type": "Feature", "properties": { "ADDRESS": "345 Chambers St", "CITY": "New York", "STATE": "NY", "ZIP": "10282", "DIR": null, "COMMUNITY": "Battery Park City", "ZONE": "A", "NUM_OF": "13", "addrtype": "premise", "addrlocat": "ROOFTOP" }, "geometry": { "type": "Point", "coordinates": [ -74.0139052, 40.7179464 ] } },
{ "type": "Feature", "properties": { "ADDRESS": "99 Battery Pl", "CITY": "New York", "STATE": "NY", "ZIP": "10280", "DIR": null, "COMMUNITY": "Battery Park City", "ZONE": "A", "NUM_OF": "1", "addrtype": "premise", "addrlocat": "ROOFTOP" }, "geometry": { "type": "Point", "coordinates": [ -74.0166364, 40.7076576 ] } },
{ "type": "Feature", "properties": { "ADDRESS": "Battery Pl & 2nd Pl", "CITY": "New York", "STATE": "NY", "ZIP": "10280", "DIR": "SE", "COMMUNITY": "Battery Park City", "ZONE": "A", "NUM_OF": "1", "addrtype": "intersection", "addrlocat": "APPROXIMATE" }, "geometry": { "type": "Point", "coordinates": [ -74.0175802, 40.7068286 ] } },
{ "type": "Feature", "properties": { "ADDRESS": "Battery Pl & 1St Pl", "CITY": "New York", "STATE": "NY", "ZIP": "10280", "DIR": "SE", "COMMUNITY": "Battery Park City", "ZONE": "A", "NUM_OF": "2", "addrtype": "intersection", "addrlocat": "APPROXIMATE" }, "geometry": { "type": "Point", "coordinates": [ -74.0179524, 40.7061316 ] } },
{ "type": "Feature", "properties": { "ADDRESS": "300 Albany St", "CITY": "New York", "STATE": "NY", "ZIP": "10280", "DIR": null, "COMMUNITY": "Battery Park City", "ZONE": "A", "NUM_OF": "3", "addrtype": "street_address", "addrlocat": "ROOFTOP" }, "geometry": { "type": "Point", "coordinates": [ -74.0168448, 40.7100228 ] } },
{ "type": "Feature", "properties": { "ADDRESS": "15 Maiden Lane", "CITY": "New York", "STATE": "NY", "ZIP": "10038", "DIR": null, "COMMUNITY": "Financial District", "ZONE": "A", "NUM_OF": "2", "addrtype": "premise", "addrlocat": "ROOFTOP" }, "geometry": { "type": "Point", "coordinates": [ -74.0090892, 40.7095144 ] } },
{ "type": "Feature", "properties": { "ADDRESS": "21-23 Maiden Lane", "CITY": "New York", "STATE": "NY", "ZIP": "10038", "DIR": null, "COMMUNITY": "Financial District", "ZONE": "A", "NUM_OF": "1", "addrtype": "street_address", "addrlocat": "ROOFTOP" }, "geometry": { "type": "Point", "coordinates": [ -74.0089547, 40.7093329 ] } },
{ "type": "Feature", "properties": { "ADDRESS": "176 Broadway", "CITY": "New York", "STATE": "NY", "ZIP": "10038", "DIR": null, "COMMUNITY": "Financial District", "ZONE": "A", "NUM_OF": "2", "addrtype": "street_address", "addrlocat": "ROOFTOP" }, "geometry": { "type": "Point", "coordinates": [ -74.0094839, 40.7098002 ] } },
{ "type": "Feature", "properties": { "ADDRESS": "30 W Broadway", "CITY": "New York", "STATE": "NY", "ZIP": "10007", "DIR": null, "COMMUNITY": "Financial District", "ZONE": "A", "NUM_OF": "3", "addrtype": "street_address", "addrlocat": "ROOFTOP" }, "geometry": { "type": "Point", "coordinates": [ -74.011129, 40.713747 ] } },
{ "type": "Feature", "properties": { "ADDRESS": "53 W Broadway", "CITY": "New York", "STATE": "NY", "ZIP": "10007", "DIR": null, "COMMUNITY": "Financial District", "ZONE": "A", "NUM_OF": "1", "addrtype": "street_address", "addrlocat": "RANGE_INTERPOLATED" }, "geometry": { "type": "Point", "coordinates": [ -74.0102785, 40.7141915 ] } },
{ "type": "Feature", "properties": { "ADDRESS": "101 Barclay St", "CITY": "New York", "STATE": "NY", "ZIP": "10007", "DIR": "N", "COMMUNITY": "Financial District", "ZONE": "A", "NUM_OF": "1", "addrtype": "premise", "addrlocat": "ROOFTOP" }, "geometry": { "type": "Point", "coordinates": [ -74.0121507, 40.7144487 ] } },
{ "type": "Feature", "properties": { "ADDRESS": "100 Barclay St", "CITY": "New York", "STATE": "NY", "ZIP": "10007", "DIR": "S", "COMMUNITY": "Financial District", "ZONE": "A", "NUM_OF": "1", "addrtype": "street_address", "addrlocat": "RANGE_INTERPOLATED" }, "geometry": { "type": "Point", "coordinates": [ -74.0126742, 40.7140773 ] } },
{ "type": "Feature", "properties": { "ADDRESS": "265 Greenwich St", "CITY": "New York", "STATE": "NY", "ZIP": "10007", "DIR": null, "COMMUNITY": "Financial District", "ZONE": "A", "NUM_OF": "6", "addrtype": "street_address", "addrlocat": "RANGE_INTERPOLATED" }, "geometry": { "type": "Point", "coordinates": [ -74.0122725, 40.7113734 ] } },
{ "type": "Feature", "properties": { "ADDRESS": "258 Greenwich St", "CITY": "New York", "STATE": "NY", "ZIP": "10007", "DIR": null, "COMMUNITY": "Financial District", "ZONE": "A", "NUM_OF": "1", "addrtype": "street_address", "addrlocat": "RANGE_INTERPOLATED" }, "geometry": { "type": "Point", "coordinates": [ -74.0113935, 40.7148871 ] } },
{ "type": "Feature", "properties": { "ADDRESS": "6 Maiden Lane", "CITY": "New York", "STATE": "NY", "ZIP": "10038", "DIR": null, "COMMUNITY": "Financial District", "ZONE": "A", "NUM_OF": "1", "addrtype": "street_address", "addrlocat": "ROOFTOP" }, "geometry": { "type": "Point", "coordinates": [ -74.0096937, 40.7095101 ] } },
{ "type": "Feature", "properties": { "ADDRESS": "14 Maiden Lane", "CITY": "New York", "STATE": "NY", "ZIP": "10038", "DIR": null, "COMMUNITY": "Financial District", "ZONE": "A", "NUM_OF": "1", "addrtype": "premise", "addrlocat": "ROOFTOP" }, "geometry": { "type": "Point", "coordinates": [ -74.0093855, 40.7092814 ] } },
{ "type": "Feature", "properties": { "ADDRESS": "233 Broadway", "CITY": "New York", "STATE": "NY", "ZIP": "10007", "DIR": null, "COMMUNITY": "Financial District", "ZONE": "A", "NUM_OF": "1", "addrtype": "street_address", "addrlocat": "ROOFTOP" }, "geometry": { "type": "Point", "coordinates": [ -74.0082925, 40.7124491 ] } },
{ "type": "Feature", "properties": { "ADDRESS": "250 Broadway", "CITY": "New York", "STATE": "NY", "ZIP": "10007", "DIR": null, "COMMUNITY": "Financial District", "ZONE": "A", "NUM_OF": "1", "addrtype": "premise", "addrlocat": "ROOFTOP" }, "geometry": { "type": "Point", "coordinates": [ -74.007819, 40.7129838 ] } },
{ "type": "Feature", "properties": { "ADDRESS": "250 Broadway & Murray St", "CITY": "New York", "STATE": "NY", "ZIP": "10007", "DIR": null, "COMMUNITY": "Financial District", "ZONE": "A", "NUM_OF": "1", "addrtype": "intersection", "addrlocat": "APPROXIMATE" }, "geometry": { "type": "Point", "coordinates": [ -74.0072188, 40.7130849 ] } },
{ "type": "Feature", "properties": { "ADDRESS": "70 Murray St", "CITY": "New York", "STATE": "NY", "ZIP": "10007", "DIR": "E", "COMMUNITY": "Financial District", "ZONE": "A", "NUM_OF": "1", "addrtype": "street_address", "addrlocat": "ROOFTOP" }, "geometry": { "type": "Point", "coordinates": [ -74.010839, 40.714323 ] } },
{ "type": "Feature", "properties": { "ADDRESS": "70 Murray St", "CITY": "New York", "STATE": "NY", "ZIP": "10007", "DIR": "W", "COMMUNITY": "Financial District", "ZONE": "A", "NUM_OF": "1", "addrtype": "street_address", "addrlocat": "ROOFTOP" }, "geometry": { "type": "Point", "coordinates": [ -74.010839, 40.714323 ] } },
{ "type": "Feature", "properties": { "ADDRESS": "14 Vesey St", "CITY": "New York", "STATE": "NY", "ZIP": "10007", "DIR": null, "COMMUNITY": "Financial District", "ZONE": "A", "NUM_OF": "2", "addrtype": "premise", "addrlocat": "ROOFTOP" }, "geometry": { "type": "Point", "coordinates": [ -74.009213, 40.7119193 ] } },
{ "type": "Feature", "properties": { "ADDRESS": "6 Barclay St", "CITY": "New York", "STATE": "NY", "ZIP": "10007", "DIR": null, "COMMUNITY": "Financial District", "ZONE": "A", "NUM_OF": "2", "addrtype": "street_address", "addrlocat": "ROOFTOP" }, "geometry": { "type": "Point", "coordinates": [ -74.0091664, 40.7122441 ] } },
{ "type": "Feature", "properties": { "ADDRESS": "110 Church St", "CITY": "New York", "STATE": "NY", "ZIP": "10007", "DIR": null, "COMMUNITY": "Financial District", "ZONE": "A", "NUM_OF": "1", "addrtype": "street_address", "addrlocat": "ROOFTOP" }, "geometry": { "type": "Point", "coordinates": [ -74.0092858, 40.7135918 ] } },
{ "type": "Feature", "properties": { "ADDRESS": "125 Maiden Lane", "CITY": "New York", "STATE": "NY", "ZIP": "10038", "DIR": null, "COMMUNITY": "Financial District", "ZONE": "B", "NUM_OF": "3", "addrtype": "premise", "addrlocat": "ROOFTOP" }, "geometry": { "type": "Point", "coordinates": [ -74.0062499, 40.7066092 ] } },
{ "type": "Feature", "properties": { "ADDRESS": "159 Maiden Lane", "CITY": "New York", "STATE": "NY", "ZIP": "10038", "DIR": null, "COMMUNITY": "Financial District", "ZONE": "B", "NUM_OF": "1", "addrtype": "street_address", "addrlocat": "RANGE_INTERPOLATED" }, "geometry": { "type": "Point", "coordinates": [ -74.0050533, 40.7054815 ] } },
{ "type": "Feature", "properties": { "ADDRESS": "Pine St & Water St", "CITY": "New York", "STATE": "NY", "ZIP": "10005", "DIR": "S", "COMMUNITY": "Financial District", "ZONE": "B", "NUM_OF": "1", "addrtype": "intersection", "addrlocat": "APPROXIMATE" }, "geometry": { "type": "Point", "coordinates": [ -74.006764, 40.7056309 ] } },
{ "type": "Feature", "properties": { "ADDRESS": "133 John St", "CITY": "New York", "STATE": "NY", "ZIP": "10038", "DIR": null, "COMMUNITY": "Financial District", "ZONE": "B", "NUM_OF": "2", "addrtype": "street_address", "addrlocat": "ROOFTOP" }, "geometry": { "type": "Point", "coordinates": [ -74.0050148, 40.7071791 ] } },
{ "type": "Feature", "properties": { "ADDRESS": "127 John St", "CITY": "New York", "STATE": "NY", "ZIP": "10038", "DIR": null, "COMMUNITY": "Financial District", "ZONE": "B", "NUM_OF": "2", "addrtype": "street_address", "addrlocat": "ROOFTOP" }, "geometry": { "type": "Point", "coordinates": [ -74.004762, 40.707361 ] } },
{ "type": "Feature", "properties": { "ADDRESS": "125 Maiden Lane", "CITY": "New York", "STATE": "NY", "ZIP": "10038", "DIR": null, "COMMUNITY": "Financial District", "ZONE": "B", "NUM_OF": "3", "addrtype": "premise", "addrlocat": "ROOFTOP" }, "geometry": { "type": "Point", "coordinates": [ -74.0062499, 40.7066092 ] } },
{ "type": "Feature", "properties": { "ADDRESS": "149 Maiden Lane", "CITY": "New York", "STATE": "NY", "ZIP": "10038", "DIR": null, "COMMUNITY": "Financial District", "ZONE": "B", "NUM_OF": "1", "addrtype": "street_address", "addrlocat": "RANGE_INTERPOLATED" }, "geometry": { "type": "Point", "coordinates": [ -74.0055331, 40.7058268 ] } },
{ "type": "Feature", "properties": { "ADDRESS": "55 Water St", "CITY": "New York", "STATE": "NY", "ZIP": "10004", "DIR": null, "COMMUNITY": "Financial District", "ZONE": "C", "NUM_OF": "3", "addrtype": "street_address", "addrlocat": "ROOFTOP" }, "geometry": { "type": "Point", "coordinates": [ -74.009368, 40.7031921 ] } },
{ "type": "Feature", "properties": { "ADDRESS": "17 State St", "CITY": "New York", "STATE": "NY", "ZIP": "10004", "DIR": null, "COMMUNITY": "Financial District", "ZONE": "C", "NUM_OF": "2", "addrtype": "premise", "addrlocat": "ROOFTOP" }, "geometry": { "type": "Point", "coordinates": [ -74.0139817, 40.7028826 ] } },
{ "type": "Feature", "properties": { "ADDRESS": "1 New York Plaza", "CITY": "New York", "STATE": "NY", "ZIP": "10004", "DIR": null, "COMMUNITY": "Financial District", "ZONE": "C", "NUM_OF": "2", "addrtype": "premise", "addrlocat": "ROOFTOP" }, "geometry": { "type": "Point", "coordinates": [ -74.0120105, 40.7021004 ] } },
{ "type": "Feature", "properties": { "ADDRESS": "South St & Whitehall St", "CITY": "New York", "STATE": "NY", "ZIP": "10004", "DIR": "NE", "COMMUNITY": "Financial District", "ZONE": "C", "NUM_OF": "1", "addrtype": "intersection", "addrlocat": "APPROXIMATE" }, "geometry": { "type": "Point", "coordinates": [ -74.0124732, 40.7015205 ] } },
{ "type": "Feature", "properties": { "ADDRESS": "75 Broad St", "CITY": "New York", "STATE": "NY", "ZIP": "10004", "DIR": null, "COMMUNITY": "Financial District", "ZONE": "C", "NUM_OF": "2", "addrtype": "street_address", "addrlocat": "ROOFTOP" }, "geometry": { "type": "Point", "coordinates": [ -74.0112304, 40.7046866 ] } },
{ "type": "Feature", "properties": { "ADDRESS": "Broad St & Beaver St", "CITY": "New York", "STATE": "NY", "ZIP": "10004", "DIR": "SE", "COMMUNITY": "Financial District", "ZONE": "C", "NUM_OF": "1", "addrtype": "intersection", "addrlocat": "APPROXIMATE" }, "geometry": { "type": "Point", "coordinates": [ -74.0115787, 40.70496 ] } },
{ "type": "Feature", "properties": { "ADDRESS": "10 Beaver St", "CITY": "New York", "STATE": "NY", "ZIP": "10004", "DIR": null, "COMMUNITY": "Financial District", "ZONE": "C", "NUM_OF": "1", "addrtype": "street_address", "addrlocat": "RANGE_INTERPOLATED" }, "geometry": { "type": "Point", "coordinates": [ -74.0128154, 40.7050015 ] } },
{ "type": "Feature", "properties": { "ADDRESS": "2 Broadway", "CITY": "New York", "STATE": "NY", "ZIP": "10004", "DIR": null, "COMMUNITY": "Financial District", "ZONE": "C", "NUM_OF": "2", "addrtype": "street_address", "addrlocat": "ROOFTOP" }, "geometry": { "type": "Point", "coordinates": [ -74.0130866, 40.7045399 ] } },
{ "type": "Feature", "properties": { "ADDRESS": "69 New St", "CITY": "New York", "STATE": "NY", "ZIP": "10004", "DIR": null, "COMMUNITY": "Financial District", "ZONE": "C", "NUM_OF": "1", "addrtype": "street_address", "addrlocat": "ROOFTOP" }, "geometry": { "type": "Point", "coordinates": [ -74.0125997, 40.7053238 ] } },
{ "type": "Feature", "properties": { "ADDRESS": "33 Beaver St", "CITY": "New York", "STATE": "NY", "ZIP": "10004", "DIR": null, "COMMUNITY": "Financial District", "ZONE": "C", "NUM_OF": "2", "addrtype": "street_address", "addrlocat": "ROOFTOP" }, "geometry": { "type": "Point", "coordinates": [ -74.0120712, 40.705152 ] } },
{ "type": "Feature", "properties": { "ADDRESS": "1 Whitehall St", "CITY": "New York", "STATE": "NY", "ZIP": "10004", "DIR": null, "COMMUNITY": "Financial District", "ZONE": "C", "NUM_OF": "1", "addrtype": "street_address", "addrlocat": "ROOFTOP" }, "geometry": { "type": "Point", "coordinates": [ -74.0127412, 40.7038411 ] } },
{ "type": "Feature", "properties": { "ADDRESS": "1 Bowling Green", "CITY": "New York", "STATE": "NY", "ZIP": "10004", "DIR": null, "COMMUNITY": "Financial District", "ZONE": "C", "NUM_OF": "1", "addrtype": "street_address", "addrlocat": "ROOFTOP" }, "geometry": { "type": "Point", "coordinates": [ -74.0139776, 40.7043342 ] } },
{ "type": "Feature", "properties": { "ADDRESS": "80 Broad St", "CITY": "New York", "STATE": "NY", "ZIP": "10004", "DIR": null, "COMMUNITY": "Financial District", "ZONE": "C", "NUM_OF": "1", "addrtype": "street_address", "addrlocat": "ROOFTOP" }, "geometry": { "type": "Point", "coordinates": [ -74.0118572, 40.7043408 ] } },
{ "type": "Feature", "properties": { "ADDRESS": "Marketfield St & Broad St", "CITY": "New York", "STATE": "NY", "ZIP": "10004", "DIR": "SW", "COMMUNITY": "Financial District", "ZONE": "C", "NUM_OF": "2", "addrtype": "intersection", "addrlocat": "APPROXIMATE" }, "geometry": { "type": "Point", "coordinates": [ -74.0115808, 40.7047001 ] } },
{ "type": "Feature", "properties": { "ADDRESS": "48 Water St", "CITY": "New York", "STATE": "NY", "ZIP": "10005", "DIR": null, "COMMUNITY": "Financial District", "ZONE": "C", "NUM_OF": "2", "addrtype": "street_address", "addrlocat": "ROOFTOP" }, "geometry": { "type": "Point", "coordinates": [ -74.0099001, 40.7036701 ] } },
{ "type": "Feature", "properties": { "ADDRESS": "106 Greenwich St", "CITY": "New York", "STATE": "NY", "ZIP": "10013", "DIR": null, "COMMUNITY": "Financial District", "ZONE": "D", "NUM_OF": "1", "addrtype": "premise", "addrlocat": "ROOFTOP" }, "geometry": { "type": "Point", "coordinates": [ -74.0136127, 40.7085336 ] } },
{ "type": "Feature", "properties": { "ADDRESS": "29 Trinity Place", "CITY": "New York", "STATE": "NY", "ZIP": "10006", "DIR": null, "COMMUNITY": "Financial District", "ZONE": "D", "NUM_OF": "3", "addrtype": "street_address", "addrlocat": "RANGE_INTERPOLATED" }, "geometry": { "type": "Point", "coordinates": [ -74.0141479, 40.7063331 ] } },
{ "type": "Feature", "properties": { "ADDRESS": "38 Greenwich St", "CITY": "New York", "STATE": "NY", "ZIP": "10006", "DIR": null, "COMMUNITY": "Financial District", "ZONE": "D", "NUM_OF": "3", "addrtype": "street_address", "addrlocat": "RANGE_INTERPOLATED" }, "geometry": { "type": "Point", "coordinates": [ -74.0144944, 40.7060193 ] } },
{ "type": "Feature", "properties": { "ADDRESS": "111 Broadway", "CITY": "New York", "STATE": "NY", "ZIP": "10006", "DIR": null, "COMMUNITY": "Financial District", "ZONE": "D", "NUM_OF": "1", "addrtype": "street_address", "addrlocat": "ROOFTOP" }, "geometry": { "type": "Point", "coordinates": [ -74.011666, 40.708699 ] } },
{ "type": "Feature", "properties": { "ADDRESS": "19 Washington St", "CITY": "New York", "STATE": "NY", "ZIP": "10004", "DIR": null, "COMMUNITY": "Financial District", "ZONE": "D", "NUM_OF": "2", "addrtype": "street_address", "addrlocat": "RANGE_INTERPOLATED" }, "geometry": { "type": "Point", "coordinates": [ -74.0153943, 40.7055938 ] } },
{ "type": "Feature", "properties": { "ADDRESS": "55 Broadway", "CITY": "New York", "STATE": "NY", "ZIP": "10006", "DIR": null, "COMMUNITY": "Financial District", "ZONE": "D", "NUM_OF": "1", "addrtype": "street_address", "addrlocat": "ROOFTOP" }, "geometry": { "type": "Point", "coordinates": [ -74.0130304, 40.7068263 ] } },
{ "type": "Feature", "properties": { "ADDRESS": "47 Broadway", "CITY": "New York", "STATE": "NY", "ZIP": "10006", "DIR": null, "COMMUNITY": "Financial District", "ZONE": "D", "NUM_OF": "1", "addrtype": "premise", "addrlocat": "ROOFTOP" }, "geometry": { "type": "Point", "coordinates": [ -74.0130412, 40.7065991 ] } },
{ "type": "Feature", "properties": { "ADDRESS": "49 Broadway", "CITY": "New York", "STATE": "NY", "ZIP": "10006", "DIR": null, "COMMUNITY": "Financial District", "ZONE": "D", "NUM_OF": "1", "addrtype": "premise", "addrlocat": "ROOFTOP" }, "geometry": { "type": "Point", "coordinates": [ -74.0133097, 40.7068075 ] } },
{ "type": "Feature", "properties": { "ADDRESS": "26 Broadway", "CITY": "New York", "STATE": "NY", "ZIP": "10004", "DIR": null, "COMMUNITY": "Financial District", "ZONE": "D", "NUM_OF": "2", "addrtype": "street_address", "addrlocat": "ROOFTOP" }, "geometry": { "type": "Point", "coordinates": [ -74.0128882, 40.7054423 ] } },
{ "type": "Feature", "properties": { "ADDRESS": "1 Broadway", "CITY": "New York", "STATE": "NY", "ZIP": "10004", "DIR": null, "COMMUNITY": "Financial District", "ZONE": "D", "NUM_OF": "1", "addrtype": "premise", "addrlocat": "ROOFTOP" }, "geometry": { "type": "Point", "coordinates": [ -74.0144336, 40.7049765 ] } },
{ "type": "Feature", "properties": { "ADDRESS": "17 State St", "CITY": "New York", "STATE": "NY", "ZIP": "10004", "DIR": null, "COMMUNITY": "Financial District", "ZONE": "D", "NUM_OF": "1", "addrtype": "premise", "addrlocat": "ROOFTOP" }, "geometry": { "type": "Point", "coordinates": [ -74.0139817, 40.7028826 ] } },
{ "type": "Feature", "properties": { "ADDRESS": "126 Broadway", "CITY": "New York", "STATE": "NY", "ZIP": "10005", "DIR": null, "COMMUNITY": "Financial District", "ZONE": "D", "NUM_OF": "1", "addrtype": "street_address", "addrlocat": "RANGE_INTERPOLATED" }, "geometry": { "type": "Point", "coordinates": [ -74.0108056, 40.7088097 ] } },
{ "type": "Feature", "properties": { "ADDRESS": "30 State St", "CITY": "New York", "STATE": "NY", "ZIP": "10004", "DIR": null, "COMMUNITY": "Financial District", "ZONE": "D", "NUM_OF": "2", "addrtype": "street_address", "addrlocat": "RANGE_INTERPOLATED" }, "geometry": { "type": "Point", "coordinates": [ -74.0144202, 40.7034195 ] } },
{ "type": "Feature", "properties": { "ADDRESS": "27 Vestry St", "CITY": "New York", "STATE": "NY", "ZIP": "10013", "DIR": null, "COMMUNITY": "Tribeca", "ZONE": "A", "NUM_OF": "1", "addrtype": "street_address", "addrlocat": "ROOFTOP" }, "geometry": { "type": "Point", "coordinates": [ -74.0085377, 40.7225562 ] } },
{ "type": "Feature", "properties": { "ADDRESS": "16 N Moore St", "CITY": "New York", "STATE": "NY", "ZIP": "10013", "DIR": null, "COMMUNITY": "Tribeca", "ZONE": "A", "NUM_OF": "1", "addrtype": "street_address", "addrlocat": "ROOFTOP" }, "geometry": { "type": "Point", "coordinates": [ -74.007032, 40.7196857 ] } },
{ "type": "Feature", "properties": { "ADDRESS": "205 Hudson St", "CITY": "New York", "STATE": "NY", "ZIP": "10013", "DIR": null, "COMMUNITY": "Tribeca", "ZONE": "A", "NUM_OF": "1", "addrtype": "street_address", "addrlocat": "ROOFTOP" }, "geometry": { "type": "Point", "coordinates": [ -74.008177, 40.7235005 ] } },
{ "type": "Feature", "properties": { "ADDRESS": "161 Hudson St", "CITY": "New York", "STATE": "NY", "ZIP": "10013", "DIR": null, "COMMUNITY": "Tribeca", "ZONE": "A", "NUM_OF": "1", "addrtype": "premise", "addrlocat": "ROOFTOP" }, "geometry": { "type": "Point", "coordinates": [ -74.0085885, 40.7218251 ] } },
{ "type": "Feature", "properties": { "ADDRESS": "151 Hudson St", "CITY": "New York", "STATE": "NY", "ZIP": "10013", "DIR": null, "COMMUNITY": "Tribeca", "ZONE": "A", "NUM_OF": "2", "addrtype": "street_address", "addrlocat": "ROOFTOP" }, "geometry": { "type": "Point", "coordinates": [ -74.008678, 40.721478 ] } },
{ "type": "Feature", "properties": { "ADDRESS": "129 Hudson St", "CITY": "New York", "STATE": "NY", "ZIP": "10013", "DIR": null, "COMMUNITY": "Tribeca", "ZONE": "A", "NUM_OF": "1", "addrtype": "premise", "addrlocat": "ROOFTOP" }, "geometry": { "type": "Point", "coordinates": [ -74.0088291, 40.7204532 ] } },
{ "type": "Feature", "properties": { "ADDRESS": "59 Beach St", "CITY": "New York", "STATE": "NY", "ZIP": "10013", "DIR": null, "COMMUNITY": "Tribeca", "ZONE": "A", "NUM_OF": "1", "addrtype": "street_address", "addrlocat": "ROOFTOP" }, "geometry": { "type": "Point", "coordinates": [ -74.009536, 40.7208447 ] } },
{ "type": "Feature", "properties": { "ADDRESS": "390 Greenich St", "CITY": "New York", "STATE": "NY", "ZIP": "10013", "DIR": null, "COMMUNITY": "Tribeca", "ZONE": "A", "NUM_OF": "4", "addrtype": "street_address", "addrlocat": "ROOFTOP" }, "geometry": { "type": "Point", "coordinates": [ -74.0109963, 40.7210307 ] } },
{ "type": "Feature", "properties": { "ADDRESS": "Church St & Reade St", "CITY": "New York", "STATE": "NY", "ZIP": "10013", "DIR": "N", "COMMUNITY": "Tribeca", "ZONE": "B", "NUM_OF": "3", "addrtype": "intersection", "addrlocat": "APPROXIMATE" }, "geometry": { "type": "Point", "coordinates": [ -74.0075527, 40.7154521 ] } },
{ "type": "Feature", "properties": { "ADDRESS": "185 Leonard St", "CITY": "New York", "STATE": "NY", "ZIP": "10013", "DIR": null, "COMMUNITY": "Tribeca", "ZONE": "B", "NUM_OF": "10", "addrtype": "street_address", "addrlocat": "RANGE_INTERPOLATED" }, "geometry": { "type": "Point", "coordinates": [ -74.0018683, 40.7158493 ] } },
{ "type": "Feature", "properties": { "ADDRESS": "151 West St", "CITY": "New York", "STATE": "NY", "ZIP": "10013", "DIR": null, "COMMUNITY": "Tribeca", "ZONE": "B", "NUM_OF": "6", "addrtype": "street_address", "addrlocat": "RANGE_INTERPOLATED" }, "geometry": { "type": "Point", "coordinates": [ -74.0105274, 40.7293086 ] } },
{ "type": "Feature", "properties": { "ADDRESS": "141 Thomas St", "CITY": "New York", "STATE": "NY", "ZIP": "10013", "DIR": null, "COMMUNITY": "Tribeca", "ZONE": "B", "NUM_OF": "1", "addrtype": "street_address", "addrlocat": "RANGE_INTERPOLATED" }, "geometry": { "type": "Point", "coordinates": [ -74.0089559, 40.7175927 ] } },
{ "type": "Feature", "properties": { "ADDRESS": "211 Franklin St", "CITY": "New York", "STATE": "NY", "ZIP": "10013", "DIR": null, "COMMUNITY": "Tribeca", "ZONE": "B", "NUM_OF": "2", "addrtype": "street_address", "addrlocat": "RANGE_INTERPOLATED" }, "geometry": { "type": "Point", "coordinates": [ -74.0102116, 40.7194301 ] } },
{ "type": "Feature", "properties": { "ADDRESS": "177 Church St", "CITY": "New York", "STATE": "NY", "ZIP": "10007", "DIR": null, "COMMUNITY": "Tribeca", "ZONE": "B", "NUM_OF": "2", "addrtype": "street_address", "addrlocat": "ROOFTOP" }, "geometry": { "type": "Point", "coordinates": [ -74.0072166, 40.7155651 ] } },
{ "type": "Feature", "properties": { "ADDRESS": "160 West Broadway", "CITY": "New York", "STATE": "NY", "ZIP": "10013", "DIR": null, "COMMUNITY": "Tribeca", "ZONE": "B", "NUM_OF": "14", "addrtype": "street_address", "addrlocat": "RANGE_INTERPOLATED" }, "geometry": { "type": "Point", "coordinates": [ -74.0077278, 40.7174593 ] } },
{ "type": "Feature", "properties": { "ADDRESS": "Warren St & Greenwich St", "CITY": "New York", "STATE": "NY", "ZIP": "10007", "DIR": "W", "COMMUNITY": "Tribeca", "ZONE": "C", "NUM_OF": "2", "addrtype": "intersection", "addrlocat": "APPROXIMATE" }, "geometry": { "type": "Point", "coordinates": [ -74.011116, 40.7156107 ] } },
{ "type": "Feature", "properties": { "ADDRESS": "133 John St", "CITY": "New York", "STATE": "NY", "ZIP": "10038", "DIR": null, "COMMUNITY": "Tribeca", "ZONE": "C", "NUM_OF": "2", "addrtype": "street_address", "addrlocat": "ROOFTOP" }, "geometry": { "type": "Point", "coordinates": [ -74.0050148, 40.7071791 ] } },
{ "type": "Feature", "properties": { "ADDRESS": "127 John St", "CITY": "New York", "STATE": "NY", "ZIP": "10038", "DIR": null, "COMMUNITY": "Tribeca", "ZONE": "C", "NUM_OF": "2", "addrtype": "street_address", "addrlocat": "ROOFTOP" }, "geometry": { "type": "Point", "coordinates": [ -74.004762, 40.707361 ] } }
]
}
