{"type": "FeatureCollection",
"crs": { "type": "name", "properties": { "name": "urn:ogc:def:crs:OGC:1.3:CRS84" } },
                                                                                
"features": [
{ "type": "Feature", "properties": { "ADDRESS": "15 Park Row", "CITY": "New York", "STATE": "NY", "ZIP": "10038", "DIR": null, "COMMUNITY": "Seaport & Civic Center", "ZONE": "A", "NUM_OF": "2", "addrtype": "street_address", "addrlocat": "ROOFTOP" }, "geometry": { "type": "Point", "coordinates": [ -74.0078405, 40.7111576 ] } },
{ "type": "Feature", "properties": { "ADDRESS": "38 Park Row", "CITY": "New York", "STATE": "NY", "ZIP": "10038", "DIR": null, "COMMUNITY": "Seaport & Civic Center", "ZONE": "A", "NUM_OF": "1", "addrtype": "street_address", "addrlocat": "ROOFTOP" }, "geometry": { "type": "Point", "coordinates": [ -74.0066803, 40.7115866 ] } },
{ "type": "Feature", "properties": { "ADDRESS": "41 Park Row", "CITY": "New York", "STATE": "NY", "ZIP": "10038", "DIR": null, "COMMUNITY": "Seaport & Civic Center", "ZONE": "A", "NUM_OF": "1", "addrtype": "street_address", "addrlocat": "ROOFTOP" }, "geometry": { "type": "Point", "coordinates": [ -74.006211, 40.7116735 ] } },
{ "type": "Feature", "properties": { "ADDRESS": "52 Chambers St", "CITY": "New York", "STATE": "NY", "ZIP": "10007", "DIR": null, "COMMUNITY": "Seaport & Civic Center", "ZONE": "A", "NUM_OF": "1", "addrtype": "street_address", "addrlocat": "ROOFTOP" }, "geometry": { "type": "Point", "coordinates": [ -74.0055456, 40.7133953 ] } },
{ "type": "Feature", "properties": { "ADDRESS": "200 Water St", "CITY": "New York", "STATE": "NY", "ZIP": "10038", "DIR": "E", "COMMUNITY": "Seaport & Civic Center", "ZONE": "A", "NUM_OF": "2", "addrtype": "street_address", "addrlocat": "ROOFTOP" }, "geometry": { "type": "Point", "coordinates": [ -74.0045635, 40.7073373 ] } },
{ "type": "Feature", "properties": { "ADDRESS": "South St & Fulton St", "CITY": "New York", "STATE": "NY", "ZIP": "10038", "DIR": "SE", "COMMUNITY": "Seaport & Civic Center", "ZONE": "A", "NUM_OF": "1", "addrtype": "intersection", "addrlocat": "APPROXIMATE" }, "geometry": { "type": "Point", "coordinates": [ -74.0031445, 40.7062308 ] } },
{ "type": "Feature", "properties": { "ADDRESS": "Chambers St & Broadway", "CITY": "New York", "STATE": "NY", "ZIP": "10007", "DIR": "NE", "COMMUNITY": "Seaport & Civic Center", "ZONE": "A", "NUM_OF": "1", "addrtype": "intersection", "addrlocat": "APPROXIMATE" }, "geometry": { "type": "Point", "coordinates": [ -74.0062967, 40.7141858 ] } },
{ "type": "Feature", "properties": { "ADDRESS": "Chambers St & Centre St", "CITY": "New York", "STATE": "NY", "ZIP": "10013", "DIR": "NW", "COMMUNITY": "Seaport & Civic Center", "ZONE": "A", "NUM_OF": "1", "addrtype": "intersection", "addrlocat": "APPROXIMATE" }, "geometry": { "type": "Point", "coordinates": [ -74.0040497, 40.7131335 ] } },
{ "type": "Feature", "properties": { "ADDRESS": "200 Liberty St", "CITY": "New York", "STATE": "NY", "ZIP": "10281", "DIR": null, "COMMUNITY": "Battery Park City", "ZONE": "A", "NUM_OF": "2", "addrtype": "street_address", "addrlocat": "ROOFTOP" }, "geometry": { "type": "Point", "coordinates": [ -74.015583, 40.7105803 ] } },
{ "type": "Feature", "properties": { "ADDRESS": "300 Rector Pl", "CITY": "New York", "STATE": "NY", "ZIP": "10280", "DIR": null, "COMMUNITY": "Battery Park City", "ZONE": "A", "NUM_OF": "1", "addrtype": "street_address", "addrlocat": "ROOFTOP" }, "geometry": { "type": "Point", "coordinates": [ -74.0173477, 40.7089922 ] } },
{ "type": "Feature", "properties": { "ADDRESS": "280 Rector Pl", "CITY": "New York", "STATE": "NY", "ZIP": "10280", "DIR": null, "COMMUNITY": "Battery Park City", "ZONE": "A", "NUM_OF": "1", "addrtype": "street_address", "addrlocat": "ROOFTOP" }, "geometry": { "type": "Point", "coordinates": [ -74.0166546, 40.7088321 ] } },
{ "type": "Feature", "properties": { "ADDRESS": "20 River Terrace", "CITY": "New York", "STATE": "NY", "ZIP": "10282", "DIR": null, "COMMUNITY": "Battery Park City", "ZONE": "A", "NUM_OF": "1", "addrtype": "premise", "addrlocat": "ROOFTOP" }, "geometry": { "type": "Point", "coordinates": [ -74.0161324, 40.7165818 ] } },
{ "type": "Feature", "properties": { "ADDRESS": "102 North End Ave", "CITY": "New York", "STATE": "NY", "ZIP": "10282", "DIR": null, "COMMUNITY": "Battery Park City", "ZONE": "A", "NUM_OF": "3", "addrtype": "street_address", "addrlocat": "ROOFTOP" }, "geometry": { "type": "Point", "coordinates": [ -74.0152218, 40.7150015 ] } },
{ "type": "Feature", "properties": { "ADDRESS": "200 West St", "CITY": "New York", "STATE": "NY", "ZIP": "10013", "DIR": null, "COMMUNITY": "Battery Park City", "ZONE": "A", "NUM_OF": "2", "addrtype": "street_address", "addrlocat": "ROOFTOP" }, "geometry": { "type": "Point", "coordinates": [ -74.0142802, 40.7148673 ] } },
{ "type": "Feature", "properties": { "ADDRESS": "Church St & Liberty St", "CITY": "New York", "STATE": "NY", "ZIP": "10007", "DIR": null, "COMMUNITY": "Financial District", "ZONE": "A", "NUM_OF": "2", "addrtype": "intersection", "addrlocat": "APPROXIMATE" }, "geometry": { "type": "Point", "coordinates": [ -74.0116666, 40.7096568 ] } },
{ "type": "Feature", "properties": { "ADDRESS": "7 Church St", "CITY": "New York", "STATE": "NY", "ZIP": "10007", "DIR": null, "COMMUNITY": "Financial District", "ZONE": "A", "NUM_OF": "1", "addrtype": "street_address", "addrlocat": "RANGE_INTERPOLATED" }, "geometry": { "type": "Point", "coordinates": [ -74.0111421, 40.7104078 ] } },
{ "type": "Feature", "properties": { "ADDRESS": "30 Church St", "CITY": "New York", "STATE": "NY", "ZIP": "10007", "DIR": null, "COMMUNITY": "Financial District", "ZONE": "A", "NUM_OF": "2", "addrtype": "street_address", "addrlocat": "RANGE_INTERPOLATED" }, "geometry": { "type": "Point", "coordinates": [ -74.0109682, 40.7107328 ] } },
{ "type": "Feature", "properties": { "ADDRESS": "233 Broadway", "CITY": "New York", "STATE": "NY", "ZIP": "10007", "DIR": null, "COMMUNITY": "Financial District", "ZONE": "A", "NUM_OF": "1", "addrtype": "street_address", "addrlocat": "ROOFTOP" }, "geometry": { "type": "Point", "coordinates": [ -74.0082925, 40.7124491 ] } },
{ "type": "Feature", "properties": { "ADDRESS": "250 Broadway", "CITY": "New York", "STATE": "NY", "ZIP": "10007", "DIR": null, "COMMUNITY": "Financial District", "ZONE": "A", "NUM_OF": "1", "addrtype": "premise", "addrlocat": "ROOFTOP" }, "geometry": { "type": "Point", "coordinates": [ -74.007819, 40.7129838 ] } },
{ "type": "Feature", "properties": { "ADDRESS": "75 Wall St", "CITY": "New York", "STATE": "NY", "ZIP": "10005", "DIR": null, "COMMUNITY": "Financial District", "ZONE": "B", "NUM_OF": "1", "addrtype": "premise", "addrlocat": "ROOFTOP" }, "geometry": { "type": "Point", "coordinates": [ -74.0079954, 40.7051404 ] } },
{ "type": "Feature", "properties": { "ADDRESS": "145 Water St", "CITY": "New York", "STATE": "NY", "ZIP": "10038", "DIR": null, "COMMUNITY": "Financial District", "ZONE": "B", "NUM_OF": "1", "addrtype": "street_address", "addrlocat": "RANGE_INTERPOLATED" }, "geometry": { "type": "Point", "coordinates": [ -74.0063435, 40.7058974 ] } },
{ "type": "Feature", "properties": { "ADDRESS": "200 Water St", "CITY": "New York", "STATE": "NY", "ZIP": "10038", "DIR": null, "COMMUNITY": "Financial District", "ZONE": "B", "NUM_OF": "1", "addrtype": "street_address", "addrlocat": "ROOFTOP" }, "geometry": { "type": "Point", "coordinates": [ -74.0045635, 40.7073373 ] } },
{ "type": "Feature", "properties": { "ADDRESS": "1 State St Plaza", "CITY": "New York", "STATE": "NY", "ZIP": "10004", "DIR": null, "COMMUNITY": "Financial District", "ZONE": "C", "NUM_OF": "1", "addrtype": "premise", "addrlocat": "ROOFTOP" }, "geometry": { "type": "Point", "coordinates": [ -74.0133863, 40.7027631 ] } },
{ "type": "Feature", "properties": { "ADDRESS": "1 New York Plaza", "CITY": "New York", "STATE": "NY", "ZIP": "10004", "DIR": null, "COMMUNITY": "Financial District", "ZONE": "C", "NUM_OF": "1", "addrtype": "premise", "addrlocat": "ROOFTOP" }, "geometry": { "type": "Point", "coordinates": [ -74.0120105, 40.7021004 ] } },
{ "type": "Feature", "properties": { "ADDRESS": "South St & Whitehall St", "CITY": "New York", "STATE": "NY", "ZIP": "10004", "DIR": "NE", "COMMUNITY": "Financial District", "ZONE": "C", "NUM_OF": "1", "addrtype": "intersection", "addrlocat": "APPROXIMATE" }, "geometry": { "type": "Point", "coordinates": [ -74.0124732, 40.7015205 ] } },
{ "type": "Feature", "properties": { "ADDRESS": "1 Bowling Green", "CITY": "New York", "STATE": "NY", "ZIP": "10004", "DIR": null, "COMMUNITY": "Financial District", "ZONE": "C", "NUM_OF": "5", "addrtype": "street_address", "addrlocat": "ROOFTOP" }, "geometry": { "type": "Point", "coordinates": [ -74.0139776, 40.7043342 ] } },
{ "type": "Feature", "properties": { "ADDRESS": "30 Water St", "CITY": "New York", "STATE": "NY", "ZIP": "10004", "DIR": null, "COMMUNITY": "Financial District", "ZONE": "C", "NUM_OF": "1", "addrtype": "premise", "addrlocat": "ROOFTOP" }, "geometry": { "type": "Point", "coordinates": [ -74.0110308, 40.7032931 ] } },
{ "type": "Feature", "properties": { "ADDRESS": "26 Water St", "CITY": "New York", "STATE": "NY", "ZIP": "10004", "DIR": null, "COMMUNITY": "Financial District", "ZONE": "C", "NUM_OF": "2", "addrtype": "street_address", "addrlocat": "ROOFTOP" }, "geometry": { "type": "Point", "coordinates": [ -74.011122, 40.70325 ] } },
{ "type": "Feature", "properties": { "ADDRESS": "Water St & Broad St", "CITY": "New York", "STATE": "NY", "ZIP": "10004", "DIR": "NW", "COMMUNITY": "Financial District", "ZONE": "C", "NUM_OF": "1", "addrtype": "intersection", "addrlocat": "APPROXIMATE" }, "geometry": { "type": "Point", "coordinates": [ -74.0115103, 40.7029531 ] } },
{ "type": "Feature", "properties": { "ADDRESS": "106 E Liberty St", "CITY": "New York", "STATE": "NY", "ZIP": "10281", "DIR": null, "COMMUNITY": "Financial District", "ZONE": "D", "NUM_OF": "1", "addrtype": "street_address", "addrlocat": "ROOFTOP" }, "geometry": { "type": "Point", "coordinates": [ -74.0119117, 40.7096373 ] } },
{ "type": "Feature", "properties": { "ADDRESS": "97 Trinity Place", "CITY": "New York", "STATE": "NY", "ZIP": "10006", "DIR": null, "COMMUNITY": "Financial District", "ZONE": "D", "NUM_OF": "1", "addrtype": "street_address", "addrlocat": "ROOFTOP" }, "geometry": { "type": "Point", "coordinates": [ -74.0118513, 40.7090938 ] } },
{ "type": "Feature", "properties": { "ADDRESS": "62 Trinity Place", "CITY": "New York", "STATE": "NY", "ZIP": "10006", "DIR": null, "COMMUNITY": "Financial District", "ZONE": "D", "NUM_OF": "1", "addrtype": "street_address", "addrlocat": "ROOFTOP" }, "geometry": { "type": "Point", "coordinates": [ -74.0129994, 40.7081126 ] } },
{ "type": "Feature", "properties": { "ADDRESS": "13 Trinity Place", "CITY": "New York", "STATE": "NY", "ZIP": "10006", "DIR": null, "COMMUNITY": "Financial District", "ZONE": "D", "NUM_OF": "1", "addrtype": "street_address", "addrlocat": "RANGE_INTERPOLATED" }, "geometry": { "type": "Point", "coordinates": [ -74.0139576, 40.7064425 ] } },
{ "type": "Feature", "properties": { "ADDRESS": "14 Greenwich St", "CITY": "New York", "STATE": "NY", "ZIP": "10013", "DIR": null, "COMMUNITY": "Financial District", "ZONE": "D", "NUM_OF": "1", "addrtype": "street_address", "addrlocat": "ROOFTOP" }, "geometry": { "type": "Point", "coordinates": [ -74.0096544, 40.7218551 ] } },
{ "type": "Feature", "properties": { "ADDRESS": "47 Broadway", "CITY": "New York", "STATE": "NY", "ZIP": "10006", "DIR": null, "COMMUNITY": "Financial District", "ZONE": "D", "NUM_OF": "1", "addrtype": "premise", "addrlocat": "ROOFTOP" }, "geometry": { "type": "Point", "coordinates": [ -74.0130412, 40.7065991 ] } },
{ "type": "Feature", "properties": { "ADDRESS": "9 Broadway", "CITY": "New York", "STATE": "NY", "ZIP": "10004", "DIR": null, "COMMUNITY": "Financial District", "ZONE": "D", "NUM_OF": "2", "addrtype": "street_address", "addrlocat": "ROOFTOP" }, "geometry": { "type": "Point", "coordinates": [ -74.0142069, 40.7051869 ] } },
{ "type": "Feature", "properties": { "ADDRESS": "24 State St", "CITY": "New York", "STATE": "NY", "ZIP": "10004", "DIR": null, "COMMUNITY": "Financial District", "ZONE": "D", "NUM_OF": "1", "addrtype": "street_address", "addrlocat": "ROOFTOP" }, "geometry": { "type": "Point", "coordinates": [ -74.0139189, 40.7033811 ] } },
{ "type": "Feature", "properties": { "ADDRESS": "6 Varick St", "CITY": "New York", "STATE": "NY", "ZIP": "10013", "DIR": null, "COMMUNITY": "Tribeca", "ZONE": "A", "NUM_OF": "1", "addrtype": "street_address", "addrlocat": "ROOFTOP" }, "geometry": { "type": "Point", "coordinates": [ -74.0065893, 40.7193678 ] } },
{ "type": "Feature", "properties": { "ADDRESS": "135 Church St", "CITY": "New York", "STATE": "NY", "ZIP": "10007", "DIR": null, "COMMUNITY": "Tribeca", "ZONE": "B", "NUM_OF": "2", "addrtype": "street_address", "addrlocat": "RANGE_INTERPOLATED" }, "geometry": { "type": "Point", "coordinates": [ -74.0084516, 40.7142703 ] } },
{ "type": "Feature", "properties": { "ADDRESS": "Church St & Worth St", "CITY": "New York", "STATE": "NY", "ZIP": "10013", "DIR": null, "COMMUNITY": "Tribeca", "ZONE": "B", "NUM_OF": "1", "addrtype": "intersection", "addrlocat": "APPROXIMATE" }, "geometry": { "type": "Point", "coordinates": [ -74.006272, 40.7170856 ] } },
{ "type": "Feature", "properties": { "ADDRESS": "120 West Broadway", "CITY": "New York", "STATE": "NY", "ZIP": "10013", "DIR": null, "COMMUNITY": "Tribeca", "ZONE": "B", "NUM_OF": "1", "addrtype": "premise", "addrlocat": "ROOFTOP" }, "geometry": { "type": "Point", "coordinates": [ -74.0087158, 40.7165422 ] } },
{ "type": "Feature", "properties": { "ADDRESS": "75 Water St", "CITY": "New York", "STATE": "NY", "ZIP": "10005", "DIR": null, "COMMUNITY": "Tribeca", "ZONE": "C", "NUM_OF": "1", "addrtype": "street_address", "addrlocat": "RANGE_INTERPOLATED" }, "geometry": { "type": "Point", "coordinates": [ -74.0089692, 40.704072 ] } },
{ "type": "Feature", "properties": { "ADDRESS": "133 John St", "CITY": "New York", "STATE": "NY", "ZIP": "10038", "DIR": null, "COMMUNITY": "Tribeca", "ZONE": "C", "NUM_OF": "1", "addrtype": "street_address", "addrlocat": "ROOFTOP" }, "geometry": { "type": "Point", "coordinates": [ -74.0050148, 40.7071791 ] } }
]
}
