{
"type": "FeatureCollection",
"crs": { "type": "name", "properties": { "name": "urn:ogc:def:crs:OGC:1.3:CRS84" } },
                                                                                
"features": [
{ "type": "Feature", "properties": { "ADDRESS": "52 Beekman St", "CITY": "New York", "STATE": "NY", "ZIP": "10038", "DIR": null, "COMMUNITY": "Seaport & Civic Center", "ZONE": "A", "NUM_OF": "1", "addrtype": "street_address", "addrlocat": "ROOFTOP" }, "geometry": { "type": "Point", "coordinates": [ -74.005729, 40.710991 ] } },
{ "type": "Feature", "properties": { "ADDRESS": "80 Gold St", "CITY": "New York", "STATE": "NY", "ZIP": "10038", "DIR": null, "COMMUNITY": "Seaport & Civic Center", "ZONE": "A", "NUM_OF": "1", "addrtype": "premise", "addrlocat": "ROOFTOP" }, "geometry": { "type": "Point", "coordinates": [ -74.0036035, 40.7092123 ] } },
{ "type": "Feature", "properties": { "ADDRESS": "52 Chambers St", "CITY": "New York", "STATE": "NY", "ZIP": "10007", "DIR": null, "COMMUNITY": "Seaport & Civic Center", "ZONE": "A", "NUM_OF": "1", "addrtype": "street_address", "addrlocat": "ROOFTOP" }, "geometry": { "type": "Point", "coordinates": [ -74.0055456, 40.7133953 ] } },
{ "type": "Feature", "properties": { "ADDRESS": "89 South St", "CITY": "New York", "STATE": "NY", "ZIP": "10038", "DIR": null, "COMMUNITY": "Seaport & Civic Center", "ZONE": "A", "NUM_OF": "1", "addrtype": "street_address", "addrlocat": "ROOFTOP" }, "geometry": { "type": "Point", "coordinates": [ -74.0028979, 40.7066009 ] } },
{ "type": "Feature", "properties": { "ADDRESS": "82 Fulton St", "CITY": "New York", "STATE": "NY", "ZIP": "10038", "DIR": null, "COMMUNITY": "Seaport & Civic Center", "ZONE": "A", "NUM_OF": "1", "addrtype": "street_address", "addrlocat": "ROOFTOP" }, "geometry": { "type": "Point", "coordinates": [ -74.0058712, 40.7090088 ] } },
{ "type": "Feature", "properties": { "ADDRESS": "Nassau St & Fulton St", "CITY": "New York", "STATE": "NY", "ZIP": "10038", "DIR": "SW", "COMMUNITY": "Seaport & Civic Center", "ZONE": "A", "NUM_OF": "1", "addrtype": "intersection", "addrlocat": "APPROXIMATE" }, "geometry": { "type": "Point", "coordinates": [ -74.0077407, 40.7102288 ] } },
{ "type": "Feature", "properties": { "ADDRESS": "Pearl St & Beekman St", "CITY": "New York", "STATE": "NY", "ZIP": "10038", "DIR": "NE", "COMMUNITY": "Seaport & Civic Center", "ZONE": "A", "NUM_OF": "1", "addrtype": "intersection", "addrlocat": "APPROXIMATE" }, "geometry": { "type": "Point", "coordinates": [ -74.0034142, 40.7080746 ] } },
{ "type": "Feature", "properties": { "ADDRESS": "South St & Peck Slip", "CITY": "New York", "STATE": "NY", "ZIP": "10038", "DIR": "NW", "COMMUNITY": "Seaport & Civic Center", "ZONE": "A", "NUM_OF": "1", "addrtype": "intersection", "addrlocat": "APPROXIMATE" }, "geometry": { "type": "Point", "coordinates": [ -74.0010206, 40.7074452 ] } },
{ "type": "Feature", "properties": { "ADDRESS": "Water St & Peck Slip", "CITY": "New York", "STATE": "NY", "ZIP": "10038", "DIR": "NW", "COMMUNITY": "Seaport & Civic Center", "ZONE": "A", "NUM_OF": "1", "addrtype": "intersection", "addrlocat": "APPROXIMATE" }, "geometry": { "type": "Point", "coordinates": [ -74.0018829, 40.7082626 ] } },
{ "type": "Feature", "properties": { "ADDRESS": "Water St & Fulton St", "CITY": "New York", "STATE": "NY", "ZIP": "10038", "DIR": "SW", "COMMUNITY": "Seaport & Civic Center", "ZONE": "A", "NUM_OF": "1", "addrtype": "intersection", "addrlocat": "APPROXIMATE" }, "geometry": { "type": "Point", "coordinates": [ -74.0040953, 40.7074172 ] } },
{ "type": "Feature", "properties": { "ADDRESS": "White St & Centre St", "CITY": "New York", "STATE": "NY", "ZIP": "10013", "DIR": "NE", "COMMUNITY": "Seaport & Civic Center", "ZONE": "A", "NUM_OF": "1", "addrtype": "intersection", "addrlocat": "APPROXIMATE" }, "geometry": { "type": "Point", "coordinates": [ -74.0008144, 40.7169182 ] } },
{ "type": "Feature", "properties": { "ADDRESS": "141 Worth St", "CITY": "New York", "STATE": "NY", "ZIP": "10013", "DIR": null, "COMMUNITY": "Seaport & Civic Center", "ZONE": "A", "NUM_OF": "1", "addrtype": "street_address", "addrlocat": "ROOFTOP" }, "geometry": { "type": "Point", "coordinates": [ -74.0017836, 40.7151736 ] } },
{ "type": "Feature", "properties": { "ADDRESS": "67 Mulberry St", "CITY": "New York", "STATE": "NY", "ZIP": "10013", "DIR": "W", "COMMUNITY": "Seaport & Civic Center", "ZONE": "A", "NUM_OF": "1", "addrtype": "street_address", "addrlocat": "RANGE_INTERPOLATED" }, "geometry": { "type": "Point", "coordinates": [ -73.9993222, 40.7159662 ] } },
{ "type": "Feature", "properties": { "ADDRESS": "Reade St & Centre St", "CITY": "New York", "STATE": "NY", "ZIP": "10007", "DIR": "SW", "COMMUNITY": "Seaport & Civic Center", "ZONE": "A", "NUM_OF": "1", "addrtype": "intersection", "addrlocat": "APPROXIMATE" }, "geometry": { "type": "Point", "coordinates": [ -74.003571, 40.7136622 ] } },
{ "type": "Feature", "properties": { "ADDRESS": "200 Liberty St", "CITY": "New York", "STATE": "NY", "ZIP": "10281", "DIR": null, "COMMUNITY": "Battery Park City", "ZONE": "A", "NUM_OF": "1", "addrtype": "street_address", "addrlocat": "ROOFTOP" }, "geometry": { "type": "Point", "coordinates": [ -74.015583, 40.7105803 ] } },
{ "type": "Feature", "properties": { "ADDRESS": "365 South End Ave", "CITY": "New York", "STATE": "NY", "ZIP": "10280", "DIR": null, "COMMUNITY": "Battery Park City", "ZONE": "A", "NUM_OF": "1", "addrtype": "street_address", "addrlocat": "ROOFTOP" }, "geometry": { "type": "Point", "coordinates": [ -74.0175897, 40.7107406 ] } },
{ "type": "Feature", "properties": { "ADDRESS": "250 South End Ave", "CITY": "New York", "STATE": "NY", "ZIP": "10280", "DIR": null, "COMMUNITY": "Battery Park City", "ZONE": "A", "NUM_OF": "1", "addrtype": "street_address", "addrlocat": "ROOFTOP" }, "geometry": { "type": "Point", "coordinates": [ -74.016117, 40.7097763 ] } },
{ "type": "Feature", "properties": { "ADDRESS": "300 Rector Pl", "CITY": "New York", "STATE": "NY", "ZIP": "10280", "DIR": null, "COMMUNITY": "Battery Park City", "ZONE": "A", "NUM_OF": "1", "addrtype": "street_address", "addrlocat": "ROOFTOP" }, "geometry": { "type": "Point", "coordinates": [ -74.0173477, 40.7089922 ] } },
{ "type": "Feature", "properties": { "ADDRESS": "280 Rector Pl", "CITY": "New York", "STATE": "NY", "ZIP": "10280", "DIR": null, "COMMUNITY": "Battery Park City", "ZONE": "A", "NUM_OF": "1", "addrtype": "street_address", "addrlocat": "ROOFTOP" }, "geometry": { "type": "Point", "coordinates": [ -74.0166546, 40.7088321 ] } },
{ "type": "Feature", "properties": { "ADDRESS": "380 Rector Pl", "CITY": "New York", "STATE": "NY", "ZIP": "10280", "DIR": null, "COMMUNITY": "Battery Park City", "ZONE": "A", "NUM_OF": "1", "addrtype": "street_address", "addrlocat": "ROOFTOP" }, "geometry": { "type": "Point", "coordinates": [ -74.0180757, 40.70924 ] } },
{ "type": "Feature", "properties": { "ADDRESS": "200 Rector Pl", "CITY": "New York", "STATE": "NY", "ZIP": "10280", "DIR": null, "COMMUNITY": "Battery Park City", "ZONE": "A", "NUM_OF": "1", "addrtype": "premise", "addrlocat": "ROOFTOP" }, "geometry": { "type": "Point", "coordinates": [ -74.0166092, 40.7085414 ] } },
{ "type": "Feature", "properties": { "ADDRESS": "450 North End Ave", "CITY": "New York", "STATE": "NY", "ZIP": "10282", "DIR": null, "COMMUNITY": "Battery Park City", "ZONE": "A", "NUM_OF": "1", "addrtype": "street_address", "addrlocat": "ROOFTOP" }, "geometry": { "type": "Point", "coordinates": [ -74.0138033, 40.7171027 ] } },
{ "type": "Feature", "properties": { "ADDRESS": "22 River Terrace", "CITY": "New York", "STATE": "NY", "ZIP": "10282", "DIR": null, "COMMUNITY": "Battery Park City", "ZONE": "A", "NUM_OF": "1", "addrtype": "premise", "addrlocat": "ROOFTOP" }, "geometry": { "type": "Point", "coordinates": [ -74.0158186, 40.7172737 ] } },
{ "type": "Feature", "properties": { "ADDRESS": "20 River Terrace", "CITY": "New York", "STATE": "NY", "ZIP": "10282", "DIR": null, "COMMUNITY": "Battery Park City", "ZONE": "A", "NUM_OF": "1", "addrtype": "premise", "addrlocat": "ROOFTOP" }, "geometry": { "type": "Point", "coordinates": [ -74.0161324, 40.7165818 ] } },
{ "type": "Feature", "properties": { "ADDRESS": "1 River Terrace", "CITY": "New York", "STATE": "NY", "ZIP": "10282", "DIR": null, "COMMUNITY": "Battery Park City", "ZONE": "A", "NUM_OF": "1", "addrtype": "street_address", "addrlocat": "ROOFTOP" }, "geometry": { "type": "Point", "coordinates": [ -74.016893, 40.7145304 ] } },
{ "type": "Feature", "properties": { "ADDRESS": "102 North End Ave", "CITY": "New York", "STATE": "NY", "ZIP": "10282", "DIR": null, "COMMUNITY": "Battery Park City", "ZONE": "A", "NUM_OF": "1", "addrtype": "street_address", "addrlocat": "ROOFTOP" }, "geometry": { "type": "Point", "coordinates": [ -74.0152218, 40.7150015 ] } },
{ "type": "Feature", "properties": { "ADDRESS": "200 West St", "CITY": "New York", "STATE": "NY", "ZIP": "10013", "DIR": null, "COMMUNITY": "Battery Park City", "ZONE": "A", "NUM_OF": "2", "addrtype": "street_address", "addrlocat": "ROOFTOP" }, "geometry": { "type": "Point", "coordinates": [ -74.0142802, 40.7148673 ] } },
{ "type": "Feature", "properties": { "ADDRESS": "345 Chambers St", "CITY": "New York", "STATE": "NY", "ZIP": "10282", "DIR": null, "COMMUNITY": "Battery Park City", "ZONE": "A", "NUM_OF": "3", "addrtype": "premise", "addrlocat": "ROOFTOP" }, "geometry": { "type": "Point", "coordinates": [ -74.0139052, 40.7179464 ] } },
{ "type": "Feature", "properties": { "ADDRESS": "300 Albany St", "CITY": "New York", "STATE": "NY", "ZIP": "10280", "DIR": null, "COMMUNITY": "Battery Park City", "ZONE": "A", "NUM_OF": "1", "addrtype": "street_address", "addrlocat": "ROOFTOP" }, "geometry": { "type": "Point", "coordinates": [ -74.0168448, 40.7100228 ] } },
{ "type": "Feature", "properties": { "ADDRESS": "Cortlandt St & Church St", "CITY": "New York", "STATE": "NY", "ZIP": "10007", "DIR": null, "COMMUNITY": "Financial District", "ZONE": "A", "NUM_OF": "1", "addrtype": "intersection", "addrlocat": "APPROXIMATE" }, "geometry": { "type": "Point", "coordinates": [ -74.0111796, 40.710383 ] } },
{ "type": "Feature", "properties": { "ADDRESS": "Fulton St & Church St", "CITY": "New York", "STATE": "NY", "ZIP": "10007", "DIR": null, "COMMUNITY": "Financial District", "ZONE": "A", "NUM_OF": "1", "addrtype": "intersection", "addrlocat": "APPROXIMATE" }, "geometry": { "type": "Point", "coordinates": [ -74.0104621, 40.7114848 ] } },
{ "type": "Feature", "properties": { "ADDRESS": "Liberty St & William St", "CITY": "New York", "STATE": "NY", "ZIP": "10038", "DIR": null, "COMMUNITY": "Financial District", "ZONE": "A", "NUM_OF": "1", "addrtype": "intersection", "addrlocat": "APPROXIMATE" }, "geometry": { "type": "Point", "coordinates": [ -74.0082144, 40.7076902 ] } },
{ "type": "Feature", "properties": { "ADDRESS": "53 W Broadway", "CITY": "New York", "STATE": "NY", "ZIP": "10007", "DIR": null, "COMMUNITY": "Financial District", "ZONE": "A", "NUM_OF": "1", "addrtype": "street_address", "addrlocat": "RANGE_INTERPOLATED" }, "geometry": { "type": "Point", "coordinates": [ -74.0102785, 40.7141915 ] } },
{ "type": "Feature", "properties": { "ADDRESS": "101 Barclay St", "CITY": "New York", "STATE": "NY", "ZIP": "10007", "DIR": "N", "COMMUNITY": "Financial District", "ZONE": "A", "NUM_OF": "1", "addrtype": "premise", "addrlocat": "ROOFTOP" }, "geometry": { "type": "Point", "coordinates": [ -74.0121507, 40.7144487 ] } },
{ "type": "Feature", "properties": { "ADDRESS": "101 Barclay St", "CITY": "New York", "STATE": "NY", "ZIP": "10007", "DIR": "S", "COMMUNITY": "Financial District", "ZONE": "A", "NUM_OF": "1", "addrtype": "premise", "addrlocat": "ROOFTOP" }, "geometry": { "type": "Point", "coordinates": [ -74.0121507, 40.7144487 ] } },
{ "type": "Feature", "properties": { "ADDRESS": "Broadway & Vesey St", "CITY": "New York", "STATE": "NY", "ZIP": "10007", "DIR": null, "COMMUNITY": "Financial District", "ZONE": "A", "NUM_OF": "1", "addrtype": "intersection", "addrlocat": "APPROXIMATE" }, "geometry": { "type": "Point", "coordinates": [ -74.0086398, 40.7114005 ] } },
{ "type": "Feature", "properties": { "ADDRESS": "140 Park Place", "CITY": "New York", "STATE": "NY", "ZIP": "10007", "DIR": null, "COMMUNITY": "Financial District", "ZONE": "A", "NUM_OF": "1", "addrtype": "street_address", "addrlocat": "RANGE_INTERPOLATED" }, "geometry": { "type": "Point", "coordinates": [ -74.0113228, 40.7141834 ] } },
{ "type": "Feature", "properties": { "ADDRESS": "124 Fulton St", "CITY": "New York", "STATE": "NY", "ZIP": "10038", "DIR": null, "COMMUNITY": "Financial District", "ZONE": "A", "NUM_OF": "1", "addrtype": "street_address", "addrlocat": "ROOFTOP" }, "geometry": { "type": "Point", "coordinates": [ -74.007649, 40.7100567 ] } },
{ "type": "Feature", "properties": { "ADDRESS": "Gold St & Fulton St", "CITY": "New York", "STATE": "NY", "ZIP": "10038", "DIR": "SW", "COMMUNITY": "Financial District", "ZONE": "B", "NUM_OF": "1", "addrtype": "intersection", "addrlocat": "APPROXIMATE" }, "geometry": { "type": "Point", "coordinates": [ -74.0054976, 40.7090989 ] } },
{ "type": "Feature", "properties": { "ADDRESS": "110 Maiden Lane", "CITY": "New York", "STATE": "NY", "ZIP": "10038", "DIR": null, "COMMUNITY": "Financial District", "ZONE": "B", "NUM_OF": "1", "addrtype": "street_address", "addrlocat": "ROOFTOP" }, "geometry": { "type": "Point", "coordinates": [ -74.0066578, 40.7061672 ] } },
{ "type": "Feature", "properties": { "ADDRESS": "61 William St", "CITY": "New York", "STATE": "NY", "ZIP": "10005", "DIR": null, "COMMUNITY": "Financial District", "ZONE": "B", "NUM_OF": "1", "addrtype": "street_address", "addrlocat": "RANGE_INTERPOLATED" }, "geometry": { "type": "Point", "coordinates": [ -74.0087467, 40.7072022 ] } },
{ "type": "Feature", "properties": { "ADDRESS": "1 William St", "CITY": "New York", "STATE": "NY", "ZIP": "10005", "DIR": null, "COMMUNITY": "Financial District", "ZONE": "B", "NUM_OF": "1", "addrtype": "street_address", "addrlocat": "ROOFTOP" }, "geometry": { "type": "Point", "coordinates": [ -74.0099748, 40.7048693 ] } },
{ "type": "Feature", "properties": { "ADDRESS": "28 Old Slip", "CITY": "New York", "STATE": "NY", "ZIP": "10005", "DIR": "N", "COMMUNITY": "Financial District", "ZONE": "B", "NUM_OF": "1", "addrtype": "street_address", "addrlocat": "RANGE_INTERPOLATED" }, "geometry": { "type": "Point", "coordinates": [ -74.008302, 40.7037913 ] } },
{ "type": "Feature", "properties": { "ADDRESS": "Nassau St & Wall St", "CITY": "New York", "STATE": "NY", "ZIP": "10005", "DIR": "SE", "COMMUNITY": "Financial District", "ZONE": "B", "NUM_OF": "1", "addrtype": "intersection", "addrlocat": "APPROXIMATE" }, "geometry": { "type": "Point", "coordinates": [ -74.0107108, 40.7071433 ] } },
{ "type": "Feature", "properties": { "ADDRESS": "120 Wall St", "CITY": "New York", "STATE": "NY", "ZIP": "10005", "DIR": null, "COMMUNITY": "Financial District", "ZONE": "B", "NUM_OF": "1", "addrtype": "street_address", "addrlocat": "ROOFTOP" }, "geometry": { "type": "Point", "coordinates": [ -74.0059883, 40.7047178 ] } },
{ "type": "Feature", "properties": { "ADDRESS": "38 Gold St", "CITY": "New York", "STATE": "NY", "ZIP": "10038", "DIR": null, "COMMUNITY": "Financial District", "ZONE": "B", "NUM_OF": "1", "addrtype": "street_address", "addrlocat": "ROOFTOP" }, "geometry": { "type": "Point", "coordinates": [ -74.0058962, 40.7086192 ] } },
{ "type": "Feature", "properties": { "ADDRESS": "Pearl St & Broad St", "CITY": "New York", "STATE": "NY", "ZIP": "10004", "DIR": "SE", "COMMUNITY": "Financial District", "ZONE": "C", "NUM_OF": "1", "addrtype": "intersection", "addrlocat": "APPROXIMATE" }, "geometry": { "type": "Point", "coordinates": [ -74.0115975, 40.703437 ] } },
{ "type": "Feature", "properties": { "ADDRESS": "1 New York Plaza", "CITY": "New York", "STATE": "NY", "ZIP": "10004", "DIR": null, "COMMUNITY": "Financial District", "ZONE": "C", "NUM_OF": "1", "addrtype": "premise", "addrlocat": "ROOFTOP" }, "geometry": { "type": "Point", "coordinates": [ -74.0120105, 40.7021004 ] } },
{ "type": "Feature", "properties": { "ADDRESS": "Broad St & South St", "CITY": "New York", "STATE": "NY", "ZIP": "10004", "DIR": "NW", "COMMUNITY": "Financial District", "ZONE": "C", "NUM_OF": "1", "addrtype": "intersection", "addrlocat": "APPROXIMATE" }, "geometry": { "type": "Point", "coordinates": [ -74.011175, 40.7017961 ] } },
{ "type": "Feature", "properties": { "ADDRESS": "125 Broad St", "CITY": "New York", "STATE": "NY", "ZIP": "10004", "DIR": null, "COMMUNITY": "Financial District", "ZONE": "C", "NUM_OF": "1", "addrtype": "premise", "addrlocat": "ROOFTOP" }, "geometry": { "type": "Point", "coordinates": [ -74.0105156, 40.7023357 ] } },
{ "type": "Feature", "properties": { "ADDRESS": "Broad St & Beaver St", "CITY": "New York", "STATE": "NY", "ZIP": "10004", "DIR": "SE", "COMMUNITY": "Financial District", "ZONE": "C", "NUM_OF": "1", "addrtype": "intersection", "addrlocat": "APPROXIMATE" }, "geometry": { "type": "Point", "coordinates": [ -74.0115787, 40.70496 ] } },
{ "type": "Feature", "properties": { "ADDRESS": "80 Broadway", "CITY": "New York", "STATE": "NY", "ZIP": "10005", "DIR": null, "COMMUNITY": "Financial District", "ZONE": "C", "NUM_OF": "1", "addrtype": "street_address", "addrlocat": "ROOFTOP" }, "geometry": { "type": "Point", "coordinates": [ -74.0120086, 40.7069495 ] } },
{ "type": "Feature", "properties": { "ADDRESS": "Beaver St & Broadway", "CITY": "New York", "STATE": "NY", "ZIP": "10004", "DIR": "SW", "COMMUNITY": "Financial District", "ZONE": "C", "NUM_OF": "1", "addrtype": "intersection", "addrlocat": "APPROXIMATE" }, "geometry": { "type": "Point", "coordinates": [ -74.0133253, 40.7050362 ] } },
{ "type": "Feature", "properties": { "ADDRESS": "1 Exchange Plaza", "CITY": "New York", "STATE": "NY", "ZIP": "10006", "DIR": null, "COMMUNITY": "Financial District", "ZONE": "D", "NUM_OF": "1", "addrtype": "street_address", "addrlocat": "ROOFTOP" }, "geometry": { "type": "Point", "coordinates": [ -74.0128876, 40.7067944 ] } },
{ "type": "Feature", "properties": { "ADDRESS": "6 Greenwich St", "CITY": "New York", "STATE": "NY", "ZIP": "10013", "DIR": null, "COMMUNITY": "Financial District", "ZONE": "D", "NUM_OF": "1", "addrtype": "street_address", "addrlocat": "ROOFTOP" }, "geometry": { "type": "Point", "coordinates": [ -74.009669, 40.7215303 ] } },
{ "type": "Feature", "properties": { "ADDRESS": "56 West St", "CITY": "New York", "STATE": "NY", "ZIP": "10006", "DIR": null, "COMMUNITY": "Financial District", "ZONE": "D", "NUM_OF": "1", "addrtype": "street_address", "addrlocat": "ROOFTOP" }, "geometry": { "type": "Point", "coordinates": [ -74.0151364, 40.7083435 ] } },
{ "type": "Feature", "properties": { "ADDRESS": "14 Rector St", "CITY": "New York", "STATE": "NY", "ZIP": "10006", "DIR": null, "COMMUNITY": "Financial District", "ZONE": "D", "NUM_OF": "1", "addrtype": "street_address", "addrlocat": "ROOFTOP" }, "geometry": { "type": "Point", "coordinates": [ -74.0138869, 40.7081335 ] } },
{ "type": "Feature", "properties": { "ADDRESS": "21 West St", "CITY": "New York", "STATE": "NY", "ZIP": "10006", "DIR": null, "COMMUNITY": "Financial District", "ZONE": "D", "NUM_OF": "1", "addrtype": "street_address", "addrlocat": "ROOFTOP" }, "geometry": { "type": "Point", "coordinates": [ -74.015617, 40.7063636 ] } },
{ "type": "Feature", "properties": { "ADDRESS": "406 Greenwich St", "CITY": "New York", "STATE": "NY", "ZIP": "10013", "DIR": null, "COMMUNITY": "Tribeca", "ZONE": "A", "NUM_OF": "1", "addrtype": "street_address", "addrlocat": "ROOFTOP" }, "geometry": { "type": "Point", "coordinates": [ -74.0109801, 40.7211659 ] } },
{ "type": "Feature", "properties": { "ADDRESS": "78 Laight St", "CITY": "New York", "STATE": "NY", "ZIP": "10013", "DIR": null, "COMMUNITY": "Tribeca", "ZONE": "A", "NUM_OF": "1", "addrtype": "street_address", "addrlocat": "ROOFTOP" }, "geometry": { "type": "Point", "coordinates": [ -74.0107801, 40.7224649 ] } },
{ "type": "Feature", "properties": { "ADDRESS": "28 Vestry St", "CITY": "New York", "STATE": "NY", "ZIP": "10013", "DIR": null, "COMMUNITY": "Tribeca", "ZONE": "A", "NUM_OF": "1", "addrtype": "street_address", "addrlocat": "ROOFTOP" }, "geometry": { "type": "Point", "coordinates": [ -74.008487, 40.7227677 ] } },
{ "type": "Feature", "properties": { "ADDRESS": "West St & N Moore St", "CITY": "New York", "STATE": "NY", "ZIP": "10013", "DIR": "NE", "COMMUNITY": "Tribeca", "ZONE": "A", "NUM_OF": "1", "addrtype": "intersection", "addrlocat": "APPROXIMATE" }, "geometry": { "type": "Point", "coordinates": [ -74.0122787, 40.7203285 ] } },
{ "type": "Feature", "properties": { "ADDRESS": "151 Hudson St", "CITY": "New York", "STATE": "NY", "ZIP": "10013", "DIR": null, "COMMUNITY": "Tribeca", "ZONE": "A", "NUM_OF": "1", "addrtype": "street_address", "addrlocat": "ROOFTOP" }, "geometry": { "type": "Point", "coordinates": [ -74.008678, 40.721478 ] } },
{ "type": "Feature", "properties": { "ADDRESS": "220 Church St", "CITY": "New York", "STATE": "NY", "ZIP": "10013", "DIR": null, "COMMUNITY": "Tribeca", "ZONE": "B", "NUM_OF": "1", "addrtype": "street_address", "addrlocat": "ROOFTOP" }, "geometry": { "type": "Point", "coordinates": [ -74.0069287, 40.7168991 ] } },
{ "type": "Feature", "properties": { "ADDRESS": "2 Wall St", "CITY": "New York", "STATE": "NY", "ZIP": "10005", "DIR": null, "COMMUNITY": "Tribeca", "ZONE": "C", "NUM_OF": "1", "addrtype": "premise", "addrlocat": "ROOFTOP" }, "geometry": { "type": "Point", "coordinates": [ -74.0113243, 40.7077478 ] } },
{ "type": "Feature", "properties": { "ADDRESS": "Nassau St & Wall St", "CITY": "New York", "STATE": "NY", "ZIP": "10005", "DIR": "SE", "COMMUNITY": "Tribeca", "ZONE": "C", "NUM_OF": "1", "addrtype": "intersection", "addrlocat": "APPROXIMATE" }, "geometry": { "type": "Point", "coordinates": [ -74.0107108, 40.7071433 ] } },
{ "type": "Feature", "properties": { "ADDRESS": "28 Old Slip", "CITY": "New York", "STATE": "NY", "ZIP": "10005", "DIR": null, "COMMUNITY": "Tribeca", "ZONE": "C", "NUM_OF": "1", "addrtype": "street_address", "addrlocat": "RANGE_INTERPOLATED" }, "geometry": { "type": "Point", "coordinates": [ -74.008302, 40.7037913 ] } }
]
}
